<?xml version="1.0" encoding="utf-8" standalone="no"?>
<gpx creator="zepp" version="1.1" xmlns="http://www.topografix.com/GPX/1/1" xmlns:ns1="http://www.cluetrust.com/XML/GPXDATA/1/0" xmlns:ns2="http://www.garmin.com/xmlschemas/GpxExtensions/v3" xmlns:ns3="http://www.garmin.com/xmlschemas/TrackPointExtension/v1" xmlns:xsi="http://www.w3.org/2001/XMLSchema-instance" xsi:schemaLocation="http://www.topografix.com/GPX/1/1 http://www.topografix.com/GPX/11.xsd">
	<metadata>
		<name>미포 청사포 달맞이 업힐코스</name>
	</metadata>
	<trk>
		<name>미포 청사포 달맞이 업힐코스</name>
		<trkseg>
			<trkpt lat="35.160061" lon="129.17074">
				<ele>13.65</ele>
			</trkpt>
			<trkpt lat="35.160064" lon="129.170742">
				<ele>13.69</ele>
			</trkpt>
			<trkpt lat="35.1599978" lon="129.1708138">
				<ele>13.687999999999999</ele>
			</trkpt>
			<trkpt lat="35.1599316" lon="129.1708856">
				<ele>13.686</ele>
			</trkpt>
			<trkpt lat="35.1598654" lon="129.1709574">
				<ele>13.684</ele>
			</trkpt>
			<trkpt lat="35.1597992" lon="129.1710292">
				<ele>13.682</ele>
			</trkpt>
			<trkpt lat="35.159732999999996" lon="129.171101">
				<ele>13.68</ele>
			</trkpt>
			<trkpt lat="35.1596668" lon="129.1711728">
				<ele>13.677999999999999</ele>
			</trkpt>
			<trkpt lat="35.1596006" lon="129.1712446">
				<ele>13.676</ele>
			</trkpt>
			<trkpt lat="35.1595344" lon="129.1713164">
				<ele>13.674</ele>
			</trkpt>
			<trkpt lat="35.1594682" lon="129.1713882">
				<ele>13.672</ele>
			</trkpt>
			<trkpt lat="35.159402" lon="129.17146">
				<ele>13.67</ele>
			</trkpt>
			<trkpt lat="35.1593358" lon="129.1715318">
				<ele>13.668</ele>
			</trkpt>
			<trkpt lat="35.1592696" lon="129.1716036">
				<ele>13.666</ele>
			</trkpt>
			<trkpt lat="35.159203399999996" lon="129.1716754">
				<ele>13.664</ele>
			</trkpt>
			<trkpt lat="35.159137199999996" lon="129.1717472">
				<ele>13.662</ele>
			</trkpt>
			<trkpt lat="35.159071" lon="129.171819">
				<ele>13.66</ele>
			</trkpt>
			<trkpt lat="35.1590048" lon="129.1718908">
				<ele>13.658</ele>
			</trkpt>
			<trkpt lat="35.1589386" lon="129.1719626">
				<ele>13.656</ele>
			</trkpt>
			<trkpt lat="35.1588724" lon="129.1720344">
				<ele>13.654</ele>
			</trkpt>
			<trkpt lat="35.1588062" lon="129.1721062">
				<ele>13.652000000000001</ele>
			</trkpt>
			<trkpt lat="35.15874" lon="129.172178">
				<ele>13.65</ele>
			</trkpt>
			<trkpt lat="35.158673799999995" lon="129.1722498">
				<ele>13.648</ele>
			</trkpt>
			<trkpt lat="35.158607599999996" lon="129.1723216">
				<ele>13.646</ele>
			</trkpt>
			<trkpt lat="35.1585414" lon="129.1723934">
				<ele>13.644</ele>
			</trkpt>
			<trkpt lat="35.1584752" lon="129.1724652">
				<ele>13.642000000000001</ele>
			</trkpt>
			<trkpt lat="35.158409" lon="129.172537">
				<ele>13.64</ele>
			</trkpt>
			<trkpt lat="35.15833" lon="129.172504">
				<ele>12.65</ele>
			</trkpt>
			<trkpt lat="35.158269142857144" lon="129.17258028571428">
				<ele>12.637142857142857</ele>
			</trkpt>
			<trkpt lat="35.15820828571429" lon="129.17265657142858">
				<ele>12.624285714285715</ele>
			</trkpt>
			<trkpt lat="35.15814742857143" lon="129.17273285714285">
				<ele>12.611428571428572</ele>
			</trkpt>
			<trkpt lat="35.15808657142857" lon="129.17280914285715">
				<ele>12.598571428571429</ele>
			</trkpt>
			<trkpt lat="35.15802571428571" lon="129.17288542857142">
				<ele>12.585714285714285</ele>
			</trkpt>
			<trkpt lat="35.15796485714286" lon="129.17296171428572">
				<ele>12.572857142857144</ele>
			</trkpt>
			<trkpt lat="35.157904" lon="129.173038">
				<ele>12.56</ele>
			</trkpt>
			<trkpt lat="35.1578552" lon="129.1731134">
				<ele>12.534</ele>
			</trkpt>
			<trkpt lat="35.1578064" lon="129.1731888">
				<ele>12.508000000000001</ele>
			</trkpt>
			<trkpt lat="35.157757600000004" lon="129.1732642">
				<ele>12.482</ele>
			</trkpt>
			<trkpt lat="35.1577088" lon="129.1733396">
				<ele>12.456</ele>
			</trkpt>
			<trkpt lat="35.15766" lon="129.173415">
				<ele>12.43</ele>
			</trkpt>
			<trkpt lat="35.157656" lon="129.173501">
				<ele>12.79</ele>
			</trkpt>
			<trkpt lat="35.157604090909096" lon="129.17358754545452">
				<ele>12.876060606060605</ele>
			</trkpt>
			<trkpt lat="35.15755218181818" lon="129.1736740909091">
				<ele>12.962121212121211</ele>
			</trkpt>
			<trkpt lat="35.157500272727276" lon="129.17376063636362">
				<ele>13.048181818181817</ele>
			</trkpt>
			<trkpt lat="35.15744836363637" lon="129.17384718181816">
				<ele>13.134242424242423</ele>
			</trkpt>
			<trkpt lat="35.157396454545456" lon="129.17393372727273">
				<ele>13.220303030303029</ele>
			</trkpt>
			<trkpt lat="35.15734454545455" lon="129.17402027272726">
				<ele>13.306363636363637</ele>
			</trkpt>
			<trkpt lat="35.157292636363636" lon="129.1741068181818">
				<ele>13.392424242424243</ele>
			</trkpt>
			<trkpt lat="35.15724072727273" lon="129.17419336363636">
				<ele>13.478484848484849</ele>
			</trkpt>
			<trkpt lat="35.15718881818182" lon="129.1742799090909">
				<ele>13.564545454545454</ele>
			</trkpt>
			<trkpt lat="35.15713690909091" lon="129.17436645454544">
				<ele>13.65060606060606</ele>
			</trkpt>
			<trkpt lat="35.157085" lon="129.174453">
				<ele>13.736666666666666</ele>
			</trkpt>
			<trkpt lat="35.157033090909096" lon="129.17453954545454">
				<ele>13.822727272727272</ele>
			</trkpt>
			<trkpt lat="35.15698118181818" lon="129.17462609090907">
				<ele>13.908787878787878</ele>
			</trkpt>
			<trkpt lat="35.156929272727275" lon="129.17471263636364">
				<ele>13.994848484848484</ele>
			</trkpt>
			<trkpt lat="35.15687736363637" lon="129.17479918181817">
				<ele>14.08090909090909</ele>
			</trkpt>
			<trkpt lat="35.156825454545455" lon="129.1748857272727">
				<ele>14.166969696969698</ele>
			</trkpt>
			<trkpt lat="35.15677354545455" lon="129.17497227272727">
				<ele>14.253030303030304</ele>
			</trkpt>
			<trkpt lat="35.156721636363635" lon="129.1750588181818">
				<ele>14.33909090909091</ele>
			</trkpt>
			<trkpt lat="35.15666972727273" lon="129.17514536363635">
				<ele>14.425151515151516</ele>
			</trkpt>
			<trkpt lat="35.15661781818182" lon="129.1752319090909">
				<ele>14.511212121212122</ele>
			</trkpt>
			<trkpt lat="35.15656590909091" lon="129.17531845454545">
				<ele>14.597272727272728</ele>
			</trkpt>
			<trkpt lat="35.156514" lon="129.17540499999998">
				<ele>14.683333333333334</ele>
			</trkpt>
			<trkpt lat="35.156462090909095" lon="129.17549154545455">
				<ele>14.76939393939394</ele>
			</trkpt>
			<trkpt lat="35.15641018181818" lon="129.17557809090908">
				<ele>14.855454545454545</ele>
			</trkpt>
			<trkpt lat="35.156358272727275" lon="129.17566463636362">
				<ele>14.941515151515151</ele>
			</trkpt>
			<trkpt lat="35.15630636363637" lon="129.17575118181819">
				<ele>15.027575757575757</ele>
			</trkpt>
			<trkpt lat="35.156254454545454" lon="129.17583772727272">
				<ele>15.113636363636363</ele>
			</trkpt>
			<trkpt lat="35.15620254545455" lon="129.17592427272726">
				<ele>15.19969696969697</ele>
			</trkpt>
			<trkpt lat="35.156150636363634" lon="129.17601081818182">
				<ele>15.285757575757577</ele>
			</trkpt>
			<trkpt lat="35.15609872727273" lon="129.17609736363636">
				<ele>15.371818181818183</ele>
			</trkpt>
			<trkpt lat="35.15604681818182" lon="129.1761839090909">
				<ele>15.457878787878789</ele>
			</trkpt>
			<trkpt lat="35.15599490909091" lon="129.17627045454546">
				<ele>15.543939393939395</ele>
			</trkpt>
			<trkpt lat="35.155943" lon="129.176357">
				<ele>15.63</ele>
			</trkpt>
			<trkpt lat="35.155898666666666" lon="129.176439">
				<ele>16.125</ele>
			</trkpt>
			<trkpt lat="35.15585433333333" lon="129.176521">
				<ele>16.62</ele>
			</trkpt>
			<trkpt lat="35.15581" lon="129.176603">
				<ele>17.115000000000002</ele>
			</trkpt>
			<trkpt lat="35.15576566666667" lon="129.176685">
				<ele>17.61</ele>
			</trkpt>
			<trkpt lat="35.15572133333333" lon="129.176767">
				<ele>18.105</ele>
			</trkpt>
			<trkpt lat="35.155677" lon="129.176849">
				<ele>18.6</ele>
			</trkpt>
			<trkpt lat="35.155626999999996" lon="129.17692399999999">
				<ele>18.73</ele>
			</trkpt>
			<trkpt lat="35.155577" lon="129.176999">
				<ele>18.86</ele>
			</trkpt>
			<trkpt lat="35.155547" lon="129.17708933333333">
				<ele>18.97</ele>
			</trkpt>
			<trkpt lat="35.155517" lon="129.17717966666666">
				<ele>19.080000000000002</ele>
			</trkpt>
			<trkpt lat="35.155487" lon="129.17727">
				<ele>19.19</ele>
			</trkpt>
			<trkpt lat="35.1554725" lon="129.177326">
				<ele>19.130000000000003</ele>
			</trkpt>
			<trkpt lat="35.155458" lon="129.177382">
				<ele>19.07</ele>
			</trkpt>
			<trkpt lat="35.15543766666667" lon="129.17745833333333">
				<ele>18.99</ele>
			</trkpt>
			<trkpt lat="35.15541733333333" lon="129.17753466666667">
				<ele>18.91</ele>
			</trkpt>
			<trkpt lat="35.155397" lon="129.177611">
				<ele>18.83</ele>
			</trkpt>
			<trkpt lat="35.15538075" lon="129.17770725000003">
				<ele>18.775</ele>
			</trkpt>
			<trkpt lat="35.155364500000005" lon="129.1778035">
				<ele>18.72</ele>
			</trkpt>
			<trkpt lat="35.15534825" lon="129.17789975">
				<ele>18.665</ele>
			</trkpt>
			<trkpt lat="35.155332" lon="129.177996">
				<ele>18.61</ele>
			</trkpt>
			<trkpt lat="35.15532225" lon="129.17809025">
				<ele>18.7025</ele>
			</trkpt>
			<trkpt lat="35.1553125" lon="129.1781845">
				<ele>18.795</ele>
			</trkpt>
			<trkpt lat="35.155302750000004" lon="129.17827875">
				<ele>18.8875</ele>
			</trkpt>
			<trkpt lat="35.155293" lon="129.178373">
				<ele>18.98</ele>
			</trkpt>
			<trkpt lat="35.15528625" lon="129.17847425">
				<ele>18.5075</ele>
			</trkpt>
			<trkpt lat="35.1552795" lon="129.1785755">
				<ele>18.035</ele>
			</trkpt>
			<trkpt lat="35.155272749999995" lon="129.17867675">
				<ele>17.5625</ele>
			</trkpt>
			<trkpt lat="35.155266" lon="129.178778">
				<ele>17.09</ele>
			</trkpt>
			<trkpt lat="35.155242" lon="129.178804">
				<ele>16.97</ele>
			</trkpt>
			<trkpt lat="35.155235636363635" lon="129.1789081818182">
				<ele>16.91</ele>
			</trkpt>
			<trkpt lat="35.155229272727276" lon="129.17901236363636">
				<ele>16.849999999999998</ele>
			</trkpt>
			<trkpt lat="35.15522290909091" lon="129.17911654545455">
				<ele>16.79</ele>
			</trkpt>
			<trkpt lat="35.15521654545454" lon="129.17922072727274">
				<ele>16.73</ele>
			</trkpt>
			<trkpt lat="35.155210181818184" lon="129.17932490909092">
				<ele>16.669999999999998</ele>
			</trkpt>
			<trkpt lat="35.15520381818182" lon="129.17942909090908">
				<ele>16.61</ele>
			</trkpt>
			<trkpt lat="35.15519745454546" lon="129.17953327272727">
				<ele>16.549999999999997</ele>
			</trkpt>
			<trkpt lat="35.15519109090909" lon="129.17963745454546">
				<ele>16.49</ele>
			</trkpt>
			<trkpt lat="35.155184727272726" lon="129.17974163636364">
				<ele>16.43</ele>
			</trkpt>
			<trkpt lat="35.15517836363637" lon="129.1798458181818">
				<ele>16.369999999999997</ele>
			</trkpt>
			<trkpt lat="35.155172" lon="129.17995">
				<ele>16.31</ele>
			</trkpt>
			<trkpt lat="35.155194" lon="129.179982">
				<ele>16.42</ele>
			</trkpt>
			<trkpt lat="35.15518733333334" lon="129.18007966666667">
				<ele>16.633333333333333</ele>
			</trkpt>
			<trkpt lat="35.155180666666666" lon="129.18017733333332">
				<ele>16.846666666666668</ele>
			</trkpt>
			<trkpt lat="35.155174" lon="129.180275">
				<ele>17.06</ele>
			</trkpt>
			<trkpt lat="35.155172666666665" lon="129.18036333333333">
				<ele>17.473333333333333</ele>
			</trkpt>
			<trkpt lat="35.155171333333335" lon="129.18045166666667">
				<ele>17.886666666666667</ele>
			</trkpt>
			<trkpt lat="35.15517" lon="129.18054">
				<ele>18.3</ele>
			</trkpt>
			<trkpt lat="35.155174" lon="129.18064866666668">
				<ele>19.153333333333332</ele>
			</trkpt>
			<trkpt lat="35.155178" lon="129.18075733333333">
				<ele>20.006666666666668</ele>
			</trkpt>
			<trkpt lat="35.155182" lon="129.180866">
				<ele>20.86</ele>
			</trkpt>
			<trkpt lat="35.15519166666667" lon="129.180948">
				<ele>21.286666666666665</ele>
			</trkpt>
			<trkpt lat="35.15520133333334" lon="129.18103000000002">
				<ele>21.713333333333335</ele>
			</trkpt>
			<trkpt lat="35.155211" lon="129.181112">
				<ele>22.14</ele>
			</trkpt>
			<trkpt lat="35.15522833333333" lon="129.181213">
				<ele>21.87</ele>
			</trkpt>
			<trkpt lat="35.155245666666666" lon="129.181314">
				<ele>21.599999999999998</ele>
			</trkpt>
			<trkpt lat="35.155263" lon="129.181415">
				<ele>21.33</ele>
			</trkpt>
			<trkpt lat="35.155281333333335" lon="129.1815">
				<ele>21.276666666666667</ele>
			</trkpt>
			<trkpt lat="35.155299666666664" lon="129.18158499999998">
				<ele>21.223333333333333</ele>
			</trkpt>
			<trkpt lat="35.155318" lon="129.18167">
				<ele>21.17</ele>
			</trkpt>
			<trkpt lat="35.1553485" lon="129.181771">
				<ele>21.152500000000003</ele>
			</trkpt>
			<trkpt lat="35.155378999999996" lon="129.181872">
				<ele>21.135</ele>
			</trkpt>
			<trkpt lat="35.1554095" lon="129.181973">
				<ele>21.1175</ele>
			</trkpt>
			<trkpt lat="35.15544" lon="129.182074">
				<ele>21.1</ele>
			</trkpt>
			<trkpt lat="35.1554796" lon="129.1821608">
				<ele>21.144000000000002</ele>
			</trkpt>
			<trkpt lat="35.1555192" lon="129.1822476">
				<ele>21.188000000000002</ele>
			</trkpt>
			<trkpt lat="35.1555588" lon="129.1823344">
				<ele>21.232</ele>
			</trkpt>
			<trkpt lat="35.1555984" lon="129.18242120000002">
				<ele>21.276</ele>
			</trkpt>
			<trkpt lat="35.155638" lon="129.182508">
				<ele>21.32</ele>
			</trkpt>
			<trkpt lat="35.155673" lon="129.182577">
				<ele>21.365000000000002</ele>
			</trkpt>
			<trkpt lat="35.155708" lon="129.182646">
				<ele>21.41</ele>
			</trkpt>
			<trkpt lat="35.15575333333333" lon="129.182723">
				<ele>21.753333333333334</ele>
			</trkpt>
			<trkpt lat="35.15579866666667" lon="129.1828">
				<ele>22.096666666666668</ele>
			</trkpt>
			<trkpt lat="35.155844" lon="129.182877">
				<ele>22.44</ele>
			</trkpt>
			<trkpt lat="35.155891000000004" lon="129.182942">
				<ele>23.16</ele>
			</trkpt>
			<trkpt lat="35.155938" lon="129.183007">
				<ele>23.880000000000003</ele>
			</trkpt>
			<trkpt lat="35.155985" lon="129.183072">
				<ele>24.6</ele>
			</trkpt>
			<trkpt lat="35.1560465" lon="129.18314825000002">
				<ele>25.25</ele>
			</trkpt>
			<trkpt lat="35.156108" lon="129.1832245">
				<ele>25.9</ele>
			</trkpt>
			<trkpt lat="35.1561695" lon="129.18330075">
				<ele>26.55</ele>
			</trkpt>
			<trkpt lat="35.156231" lon="129.183377">
				<ele>27.2</ele>
			</trkpt>
			<trkpt lat="35.15628225" lon="129.183432">
				<ele>27.6525</ele>
			</trkpt>
			<trkpt lat="35.1563335" lon="129.183487">
				<ele>28.105</ele>
			</trkpt>
			<trkpt lat="35.15638475" lon="129.183542">
				<ele>28.5575</ele>
			</trkpt>
			<trkpt lat="35.156436" lon="129.183597">
				<ele>29.01</ele>
			</trkpt>
			<trkpt lat="35.15651058333333" lon="129.18365162499998">
				<ele>29.0625</ele>
			</trkpt>
			<trkpt lat="35.156585166666666" lon="129.18370625">
				<ele>29.115000000000002</ele>
			</trkpt>
			<trkpt lat="35.15665975" lon="129.183760875">
				<ele>29.1675</ele>
			</trkpt>
			<trkpt lat="35.15673433333333" lon="129.18381549999998">
				<ele>29.220000000000002</ele>
			</trkpt>
			<trkpt lat="35.15680891666666" lon="129.183870125">
				<ele>29.2725</ele>
			</trkpt>
			<trkpt lat="35.1568835" lon="129.18392475">
				<ele>29.325000000000003</ele>
			</trkpt>
			<trkpt lat="35.156958083333336" lon="129.183979375">
				<ele>29.3775</ele>
			</trkpt>
			<trkpt lat="35.157032666666666" lon="129.184034">
				<ele>29.43</ele>
			</trkpt>
			<trkpt lat="35.157107249999996" lon="129.184088625">
				<ele>29.4825</ele>
			</trkpt>
			<trkpt lat="35.15718183333333" lon="129.18414325">
				<ele>29.535</ele>
			</trkpt>
			<trkpt lat="35.15725641666667" lon="129.184197875">
				<ele>29.587500000000002</ele>
			</trkpt>
			<trkpt lat="35.157331" lon="129.1842525">
				<ele>29.64</ele>
			</trkpt>
			<trkpt lat="35.15740558333333" lon="129.184307125">
				<ele>29.6925</ele>
			</trkpt>
			<trkpt lat="35.157480166666666" lon="129.18436175">
				<ele>29.745</ele>
			</trkpt>
			<trkpt lat="35.15755475" lon="129.184416375">
				<ele>29.7975</ele>
			</trkpt>
			<trkpt lat="35.15762933333333" lon="129.184471">
				<ele>29.85</ele>
			</trkpt>
			<trkpt lat="35.15770391666666" lon="129.184525625">
				<ele>29.9025</ele>
			</trkpt>
			<trkpt lat="35.1577785" lon="129.18458025">
				<ele>29.955</ele>
			</trkpt>
			<trkpt lat="35.157853083333336" lon="129.184634875">
				<ele>30.0075</ele>
			</trkpt>
			<trkpt lat="35.157927666666666" lon="129.1846895">
				<ele>30.06</ele>
			</trkpt>
			<trkpt lat="35.158002249999996" lon="129.184744125">
				<ele>30.1125</ele>
			</trkpt>
			<trkpt lat="35.15807683333333" lon="129.18479875">
				<ele>30.165</ele>
			</trkpt>
			<trkpt lat="35.15815141666667" lon="129.18485337500002">
				<ele>30.2175</ele>
			</trkpt>
			<trkpt lat="35.158226" lon="129.184908">
				<ele>30.27</ele>
			</trkpt>
			<trkpt lat="35.158288399999996" lon="129.1849536">
				<ele>29.992</ele>
			</trkpt>
			<trkpt lat="35.1583508" lon="129.1849992">
				<ele>29.714</ele>
			</trkpt>
			<trkpt lat="35.1584132" lon="129.18504480000001">
				<ele>29.436</ele>
			</trkpt>
			<trkpt lat="35.1584756" lon="129.1850904">
				<ele>29.157999999999998</ele>
			</trkpt>
			<trkpt lat="35.158538" lon="129.185136">
				<ele>28.88</ele>
			</trkpt>
			<trkpt lat="35.158605666666666" lon="129.18519733333335">
				<ele>28.551666666666666</ele>
			</trkpt>
			<trkpt lat="35.15867333333333" lon="129.18525866666667">
				<ele>28.223333333333333</ele>
			</trkpt>
			<trkpt lat="35.158741" lon="129.18532">
				<ele>27.895</ele>
			</trkpt>
			<trkpt lat="35.158808666666665" lon="129.18538133333334">
				<ele>27.566666666666666</ele>
			</trkpt>
			<trkpt lat="35.15887633333333" lon="129.1854426666667">
				<ele>27.238333333333333</ele>
			</trkpt>
			<trkpt lat="35.158944" lon="129.185504">
				<ele>26.91</ele>
			</trkpt>
			<trkpt lat="35.1590012" lon="129.1855662">
				<ele>26.862000000000002</ele>
			</trkpt>
			<trkpt lat="35.1590584" lon="129.1856284">
				<ele>26.814</ele>
			</trkpt>
			<trkpt lat="35.1591156" lon="129.1856906">
				<ele>26.766000000000002</ele>
			</trkpt>
			<trkpt lat="35.1591728" lon="129.1857528">
				<ele>26.718</ele>
			</trkpt>
			<trkpt lat="35.15923" lon="129.185815">
				<ele>26.67</ele>
			</trkpt>
			<trkpt lat="35.15928133333333" lon="129.185879">
				<ele>26.143333333333334</ele>
			</trkpt>
			<trkpt lat="35.15933266666667" lon="129.18594299999998">
				<ele>25.616666666666667</ele>
			</trkpt>
			<trkpt lat="35.159384" lon="129.186007">
				<ele>25.09</ele>
			</trkpt>
			<trkpt lat="35.159440000000004" lon="129.18608824999998">
				<ele>24.927500000000002</ele>
			</trkpt>
			<trkpt lat="35.159496000000004" lon="129.1861695">
				<ele>24.765</ele>
			</trkpt>
			<trkpt lat="35.159552" lon="129.18625075">
				<ele>24.6025</ele>
			</trkpt>
			<trkpt lat="35.159608" lon="129.186332">
				<ele>24.44</ele>
			</trkpt>
			<trkpt lat="35.15965142857143" lon="129.18642014285714">
				<ele>24.26857142857143</ele>
			</trkpt>
			<trkpt lat="35.15969485714285" lon="129.18650828571427">
				<ele>24.097142857142856</ele>
			</trkpt>
			<trkpt lat="35.15973828571428" lon="129.18659642857142">
				<ele>23.925714285714285</ele>
			</trkpt>
			<trkpt lat="35.159781714285714" lon="129.18668457142857">
				<ele>23.754285714285714</ele>
			</trkpt>
			<trkpt lat="35.159825142857144" lon="129.18677271428572">
				<ele>23.582857142857144</ele>
			</trkpt>
			<trkpt lat="35.15986857142857" lon="129.18686085714285">
				<ele>23.41142857142857</ele>
			</trkpt>
			<trkpt lat="35.159912" lon="129.186949">
				<ele>23.24</ele>
			</trkpt>
			<trkpt lat="35.15994233333333" lon="129.18703266666665">
				<ele>22.493333333333332</ele>
			</trkpt>
			<trkpt lat="35.15997266666667" lon="129.18711633333334">
				<ele>21.746666666666666</ele>
			</trkpt>
			<trkpt lat="35.160003" lon="129.1872">
				<ele>21.0</ele>
			</trkpt>
			<trkpt lat="35.16003085714286" lon="129.1872884285714">
				<ele>20.065714285714286</ele>
			</trkpt>
			<trkpt lat="35.16005871428572" lon="129.18737685714285">
				<ele>19.13142857142857</ele>
			</trkpt>
			<trkpt lat="35.16008657142857" lon="129.18746528571427">
				<ele>18.197142857142858</ele>
			</trkpt>
			<trkpt lat="35.16011442857143" lon="129.1875537142857">
				<ele>17.262857142857143</ele>
			</trkpt>
			<trkpt lat="35.16014228571429" lon="129.18764214285713">
				<ele>16.32857142857143</ele>
			</trkpt>
			<trkpt lat="35.16017014285715" lon="129.18773057142857">
				<ele>15.394285714285715</ele>
			</trkpt>
			<trkpt lat="35.160198" lon="129.187819">
				<ele>14.46</ele>
			</trkpt>
			<trkpt lat="35.160224166666666" lon="129.1879095">
				<ele>14.370000000000001</ele>
			</trkpt>
			<trkpt lat="35.16025033333334" lon="129.188">
				<ele>14.280000000000001</ele>
			</trkpt>
			<trkpt lat="35.1602765" lon="129.1880905">
				<ele>14.190000000000001</ele>
			</trkpt>
			<trkpt lat="35.16030266666667" lon="129.18818100000001">
				<ele>14.1</ele>
			</trkpt>
			<trkpt lat="35.16032883333334" lon="129.1882715">
				<ele>14.01</ele>
			</trkpt>
			<trkpt lat="35.160355" lon="129.188362">
				<ele>13.92</ele>
			</trkpt>
			<trkpt lat="35.16038447368421" lon="129.1884640526316">
				<ele>13.82</ele>
			</trkpt>
			<trkpt lat="35.160413947368426" lon="129.18856610526316">
				<ele>13.72</ele>
			</trkpt>
			<trkpt lat="35.16044342105263" lon="129.18866815789474">
				<ele>13.62</ele>
			</trkpt>
			<trkpt lat="35.16047289473684" lon="129.18877021052631">
				<ele>13.52</ele>
			</trkpt>
			<trkpt lat="35.16050236842106" lon="129.18887226315792">
				<ele>13.42</ele>
			</trkpt>
			<trkpt lat="35.160531842105264" lon="129.1889743157895">
				<ele>13.32</ele>
			</trkpt>
			<trkpt lat="35.16056131578948" lon="129.18907636842107">
				<ele>13.219999999999999</ele>
			</trkpt>
			<trkpt lat="35.16059078947369" lon="129.18917842105265">
				<ele>13.12</ele>
			</trkpt>
			<trkpt lat="35.160620263157895" lon="129.18928047368422">
				<ele>13.02</ele>
			</trkpt>
			<trkpt lat="35.16064973684211" lon="129.1893825263158">
				<ele>12.92</ele>
			</trkpt>
			<trkpt lat="35.16067921052632" lon="129.18948457894737">
				<ele>12.82</ele>
			</trkpt>
			<trkpt lat="35.160708684210526" lon="129.18958663157895">
				<ele>12.719999999999999</ele>
			</trkpt>
			<trkpt lat="35.16073815789474" lon="129.18968868421052">
				<ele>12.62</ele>
			</trkpt>
			<trkpt lat="35.16076763157895" lon="129.1897907368421">
				<ele>12.52</ele>
			</trkpt>
			<trkpt lat="35.160797105263164" lon="129.1898927894737">
				<ele>12.42</ele>
			</trkpt>
			<trkpt lat="35.16082657894737" lon="129.18999484210528">
				<ele>12.32</ele>
			</trkpt>
			<trkpt lat="35.16085605263158" lon="129.19009689473685">
				<ele>12.219999999999999</ele>
			</trkpt>
			<trkpt lat="35.160885526315795" lon="129.19019894736843">
				<ele>12.12</ele>
			</trkpt>
			<trkpt lat="35.160915" lon="129.190301">
				<ele>12.02</ele>
			</trkpt>
			<trkpt lat="35.160929" lon="129.190348">
				<ele>11.97</ele>
			</trkpt>
			<trkpt lat="35.160965000000004" lon="129.19026250000002">
				<ele>12.725000000000001</ele>
			</trkpt>
			<trkpt lat="35.161001" lon="129.190177">
				<ele>13.48</ele>
			</trkpt>
			<trkpt lat="35.16104575" lon="129.19009325000002">
				<ele>14.43375</ele>
			</trkpt>
			<trkpt lat="35.1610905" lon="129.1900095">
				<ele>15.3875</ele>
			</trkpt>
			<trkpt lat="35.16113525" lon="129.18992575">
				<ele>16.34125</ele>
			</trkpt>
			<trkpt lat="35.16118" lon="129.189842">
				<ele>17.295</ele>
			</trkpt>
			<trkpt lat="35.161224749999995" lon="129.18975825">
				<ele>18.24875</ele>
			</trkpt>
			<trkpt lat="35.161269499999996" lon="129.1896745">
				<ele>19.2025</ele>
			</trkpt>
			<trkpt lat="35.16131425" lon="129.18959074999998">
				<ele>20.15625</ele>
			</trkpt>
			<trkpt lat="35.161359" lon="129.189507">
				<ele>21.11</ele>
			</trkpt>
			<trkpt lat="35.161374" lon="129.189415">
				<ele>21.65</ele>
			</trkpt>
			<trkpt lat="35.161376" lon="129.189332">
				<ele>22.42</ele>
			</trkpt>
			<trkpt lat="35.1614186" lon="129.1892436">
				<ele>23.558</ele>
			</trkpt>
			<trkpt lat="35.1614612" lon="129.1891552">
				<ele>24.696</ele>
			</trkpt>
			<trkpt lat="35.1615038" lon="129.1890668">
				<ele>25.834</ele>
			</trkpt>
			<trkpt lat="35.1615464" lon="129.1889784">
				<ele>26.972</ele>
			</trkpt>
			<trkpt lat="35.161589" lon="129.18889">
				<ele>28.11</ele>
			</trkpt>
			<trkpt lat="35.161613" lon="129.188796">
				<ele>29.35</ele>
			</trkpt>
			<trkpt lat="35.16159" lon="129.188725">
				<ele>30.12</ele>
			</trkpt>
			<trkpt lat="35.16152966666667" lon="129.18864933333333">
				<ele>31.08666666666667</ele>
			</trkpt>
			<trkpt lat="35.16146933333333" lon="129.18857366666668">
				<ele>32.053333333333335</ele>
			</trkpt>
			<trkpt lat="35.161409" lon="129.188498">
				<ele>33.02</ele>
			</trkpt>
			<trkpt lat="35.161381" lon="129.188434">
				<ele>33.8</ele>
			</trkpt>
			<trkpt lat="35.161387" lon="129.188332">
				<ele>35.25</ele>
			</trkpt>
			<trkpt lat="35.16142146153846" lon="129.18823438461538">
				<ele>36.54</ele>
			</trkpt>
			<trkpt lat="35.16145592307692" lon="129.18813676923077">
				<ele>37.83</ele>
			</trkpt>
			<trkpt lat="35.161490384615384" lon="129.18803915384615">
				<ele>39.120000000000005</ele>
			</trkpt>
			<trkpt lat="35.161524846153846" lon="129.18794153846153">
				<ele>40.410000000000004</ele>
			</trkpt>
			<trkpt lat="35.16155930769231" lon="129.1878439230769">
				<ele>41.7</ele>
			</trkpt>
			<trkpt lat="35.16159376923077" lon="129.1877463076923">
				<ele>42.99</ele>
			</trkpt>
			<trkpt lat="35.16162823076923" lon="129.1876486923077">
				<ele>44.28</ele>
			</trkpt>
			<trkpt lat="35.161662692307694" lon="129.18755107692309">
				<ele>45.57</ele>
			</trkpt>
			<trkpt lat="35.161697153846156" lon="129.18745346153847">
				<ele>46.86</ele>
			</trkpt>
			<trkpt lat="35.16173161538462" lon="129.18735584615385">
				<ele>48.150000000000006</ele>
			</trkpt>
			<trkpt lat="35.16176607692308" lon="129.18725823076923">
				<ele>49.440000000000005</ele>
			</trkpt>
			<trkpt lat="35.16180053846154" lon="129.1871606153846">
				<ele>50.730000000000004</ele>
			</trkpt>
			<trkpt lat="35.161835" lon="129.187063">
				<ele>52.02</ele>
			</trkpt>
			<trkpt lat="35.1618895" lon="129.186981">
				<ele>53.705</ele>
			</trkpt>
			<trkpt lat="35.161944" lon="129.186899">
				<ele>55.39</ele>
			</trkpt>
			<trkpt lat="35.161976" lon="129.186885">
				<ele>55.81</ele>
			</trkpt>
			<trkpt lat="35.1620325" lon="129.18686">
				<ele>56.545</ele>
			</trkpt>
			<trkpt lat="35.162089" lon="129.186835">
				<ele>57.28</ele>
			</trkpt>
			<trkpt lat="35.1621754" lon="129.1868258">
				<ele>57.922000000000004</ele>
			</trkpt>
			<trkpt lat="35.1622618" lon="129.18681660000001">
				<ele>58.564</ele>
			</trkpt>
			<trkpt lat="35.1623482" lon="129.1868074">
				<ele>59.206</ele>
			</trkpt>
			<trkpt lat="35.1624346" lon="129.1867982">
				<ele>59.848</ele>
			</trkpt>
			<trkpt lat="35.162521" lon="129.186789">
				<ele>60.49</ele>
			</trkpt>
			<trkpt lat="35.1625994" lon="129.1867746">
				<ele>61.038000000000004</ele>
			</trkpt>
			<trkpt lat="35.1626778" lon="129.1867602">
				<ele>61.586</ele>
			</trkpt>
			<trkpt lat="35.162756200000004" lon="129.18674579999998">
				<ele>62.134</ele>
			</trkpt>
			<trkpt lat="35.162834600000004" lon="129.18673139999999">
				<ele>62.681999999999995</ele>
			</trkpt>
			<trkpt lat="35.162913" lon="129.186717">
				<ele>63.23</ele>
			</trkpt>
			<trkpt lat="35.16299175" lon="129.186706">
				<ele>63.8075</ele>
			</trkpt>
			<trkpt lat="35.1630705" lon="129.186695">
				<ele>64.385</ele>
			</trkpt>
			<trkpt lat="35.16314925" lon="129.186684">
				<ele>64.9625</ele>
			</trkpt>
			<trkpt lat="35.163228" lon="129.186673">
				<ele>65.54</ele>
			</trkpt>
			<trkpt lat="35.163282" lon="129.186665">
				<ele>65.94</ele>
			</trkpt>
			<trkpt lat="35.1633075" lon="129.1866195">
				<ele>67.645</ele>
			</trkpt>
			<trkpt lat="35.163333" lon="129.186574">
				<ele>69.35</ele>
			</trkpt>
			<trkpt lat="35.16339633333333" lon="129.186544">
				<ele>70.67999999999999</ele>
			</trkpt>
			<trkpt lat="35.16345966666667" lon="129.18651400000002">
				<ele>72.01</ele>
			</trkpt>
			<trkpt lat="35.163523" lon="129.186484">
				<ele>73.34</ele>
			</trkpt>
			<trkpt lat="35.163603249999994" lon="129.18643475">
				<ele>75.2525</ele>
			</trkpt>
			<trkpt lat="35.1636835" lon="129.1863855">
				<ele>77.16499999999999</ele>
			</trkpt>
			<trkpt lat="35.16376375" lon="129.18633625">
				<ele>79.0775</ele>
			</trkpt>
			<trkpt lat="35.163844" lon="129.186287">
				<ele>80.99</ele>
			</trkpt>
			<trkpt lat="35.1639035" lon="129.1862365">
				<ele>82.33500000000001</ele>
			</trkpt>
			<trkpt lat="35.163963" lon="129.186186">
				<ele>83.68</ele>
			</trkpt>
			<trkpt lat="35.163942500000005" lon="129.18613649999998">
				<ele>85.555</ele>
			</trkpt>
			<trkpt lat="35.163922" lon="129.186087">
				<ele>87.43</ele>
			</trkpt>
			<trkpt lat="35.1639265" lon="129.1860135">
				<ele>89.73500000000001</ele>
			</trkpt>
			<trkpt lat="35.163931" lon="129.18594">
				<ele>92.04</ele>
			</trkpt>
			<trkpt lat="35.163914" lon="129.185884">
				<ele>93.97</ele>
			</trkpt>
			<trkpt lat="35.163926000000004" lon="129.1858235">
				<ele>95.91499999999999</ele>
			</trkpt>
			<trkpt lat="35.163938" lon="129.185763">
				<ele>97.86</ele>
			</trkpt>
			<trkpt lat="35.163921" lon="129.185762">
				<ele>98.17</ele>
			</trkpt>
			<trkpt lat="35.163856" lon="129.185758">
				<ele>99.33</ele>
			</trkpt>
			<trkpt lat="35.163852" lon="129.185792">
				<ele>98.08</ele>
			</trkpt>
			<trkpt lat="35.163782" lon="129.18579266666666">
				<ele>98.79333333333334</ele>
			</trkpt>
			<trkpt lat="35.163712000000004" lon="129.18579333333332">
				<ele>99.50666666666666</ele>
			</trkpt>
			<trkpt lat="35.163642" lon="129.185794">
				<ele>100.22</ele>
			</trkpt>
			<trkpt lat="35.163562999999996" lon="129.1857875">
				<ele>100.42</ele>
			</trkpt>
			<trkpt lat="35.163484" lon="129.185781">
				<ele>100.62</ele>
			</trkpt>
			<trkpt lat="35.1634098" lon="129.1857708">
				<ele>100.786</ele>
			</trkpt>
			<trkpt lat="35.163335599999996" lon="129.1857606">
				<ele>100.952</ele>
			</trkpt>
			<trkpt lat="35.1632614" lon="129.1857504">
				<ele>101.11800000000001</ele>
			</trkpt>
			<trkpt lat="35.1631872" lon="129.1857402">
				<ele>101.284</ele>
			</trkpt>
			<trkpt lat="35.163113" lon="129.18573">
				<ele>101.45</ele>
			</trkpt>
			<trkpt lat="35.163042000000004" lon="129.1856815">
				<ele>101.56</ele>
			</trkpt>
			<trkpt lat="35.162971" lon="129.185633">
				<ele>101.67</ele>
			</trkpt>
			<trkpt lat="35.162911666666666" lon="129.18561066666666">
				<ele>101.63</ele>
			</trkpt>
			<trkpt lat="35.16285233333333" lon="129.18558833333333">
				<ele>101.59</ele>
			</trkpt>
			<trkpt lat="35.162793" lon="129.185566">
				<ele>101.55</ele>
			</trkpt>
			<trkpt lat="35.162755000000004" lon="129.18552649999998">
				<ele>101.475</ele>
			</trkpt>
			<trkpt lat="35.162717" lon="129.185487">
				<ele>101.4</ele>
			</trkpt>
			<trkpt lat="35.162650666666664" lon="129.18544733333334">
				<ele>101.30333333333334</ele>
			</trkpt>
			<trkpt lat="35.162584333333335" lon="129.18540766666666">
				<ele>101.20666666666666</ele>
			</trkpt>
			<trkpt lat="35.162518" lon="129.185368">
				<ele>101.11</ele>
			</trkpt>
			<trkpt lat="35.162435" lon="129.18533775">
				<ele>101.025</ele>
			</trkpt>
			<trkpt lat="35.162352" lon="129.18530750000002">
				<ele>100.94</ele>
			</trkpt>
			<trkpt lat="35.162268999999995" lon="129.18527725">
				<ele>100.85499999999999</ele>
			</trkpt>
			<trkpt lat="35.162186" lon="129.185247">
				<ele>100.77</ele>
			</trkpt>
			<trkpt lat="35.162127" lon="129.18521750000002">
				<ele>100.705</ele>
			</trkpt>
			<trkpt lat="35.162068" lon="129.185188">
				<ele>100.64</ele>
			</trkpt>
			<trkpt lat="35.162024" lon="129.1851405">
				<ele>100.58</ele>
			</trkpt>
			<trkpt lat="35.16198" lon="129.185093">
				<ele>100.52</ele>
			</trkpt>
			<trkpt lat="35.161907" lon="129.185056">
				<ele>100.445</ele>
			</trkpt>
			<trkpt lat="35.161834" lon="129.185019">
				<ele>100.37</ele>
			</trkpt>
			<trkpt lat="35.16176766666666" lon="129.18497150000002">
				<ele>100.41666666666667</ele>
			</trkpt>
			<trkpt lat="35.16170133333333" lon="129.184924">
				<ele>100.46333333333334</ele>
			</trkpt>
			<trkpt lat="35.161635000000004" lon="129.1848765">
				<ele>100.51</ele>
			</trkpt>
			<trkpt lat="35.16156866666667" lon="129.184829">
				<ele>100.55666666666667</ele>
			</trkpt>
			<trkpt lat="35.16150233333333" lon="129.18478149999999">
				<ele>100.60333333333334</ele>
			</trkpt>
			<trkpt lat="35.161436" lon="129.184734">
				<ele>100.65</ele>
			</trkpt>
			<trkpt lat="35.161383" lon="129.184723">
				<ele>100.735</ele>
			</trkpt>
			<trkpt lat="35.16133" lon="129.184712">
				<ele>100.82</ele>
			</trkpt>
			<trkpt lat="35.161249" lon="129.18466566666666">
				<ele>100.90666666666667</ele>
			</trkpt>
			<trkpt lat="35.161168" lon="129.18461933333333">
				<ele>100.99333333333333</ele>
			</trkpt>
			<trkpt lat="35.161087" lon="129.184573">
				<ele>101.08</ele>
			</trkpt>
			<trkpt lat="35.161037500000006" lon="129.18456">
				<ele>101.065</ele>
			</trkpt>
			<trkpt lat="35.160988" lon="129.184547">
				<ele>101.05</ele>
			</trkpt>
			<trkpt lat="35.1609375" lon="129.1845155">
				<ele>100.97999999999999</ele>
			</trkpt>
			<trkpt lat="35.160887" lon="129.184484">
				<ele>100.91</ele>
			</trkpt>
			<trkpt lat="35.160843" lon="129.184435">
				<ele>100.795</ele>
			</trkpt>
			<trkpt lat="35.160799" lon="129.184386">
				<ele>100.68</ele>
			</trkpt>
			<trkpt lat="35.160765" lon="129.1843395">
				<ele>100.555</ele>
			</trkpt>
			<trkpt lat="35.160731" lon="129.184293">
				<ele>100.43</ele>
			</trkpt>
			<trkpt lat="35.16065277777778" lon="129.1842451111111">
				<ele>100.01222222222223</ele>
			</trkpt>
			<trkpt lat="35.160574555555556" lon="129.18419722222222">
				<ele>99.59444444444445</ele>
			</trkpt>
			<trkpt lat="35.160496333333334" lon="129.18414933333332">
				<ele>99.17666666666668</ele>
			</trkpt>
			<trkpt lat="35.16041811111111" lon="129.18410144444445">
				<ele>98.75888888888889</ele>
			</trkpt>
			<trkpt lat="35.160339888888885" lon="129.18405355555555">
				<ele>98.34111111111112</ele>
			</trkpt>
			<trkpt lat="35.16026166666666" lon="129.18400566666668">
				<ele>97.92333333333333</ele>
			</trkpt>
			<trkpt lat="35.16018344444444" lon="129.18395777777778">
				<ele>97.50555555555556</ele>
			</trkpt>
			<trkpt lat="35.16010522222222" lon="129.1839098888889">
				<ele>97.08777777777777</ele>
			</trkpt>
			<trkpt lat="35.160027" lon="129.183862">
				<ele>96.67</ele>
			</trkpt>
			<trkpt lat="35.159951166666666" lon="129.183818">
				<ele>97.06833333333333</ele>
			</trkpt>
			<trkpt lat="35.15987533333333" lon="129.183774">
				<ele>97.46666666666667</ele>
			</trkpt>
			<trkpt lat="35.1597995" lon="129.18373">
				<ele>97.86500000000001</ele>
			</trkpt>
			<trkpt lat="35.159723666666665" lon="129.183686">
				<ele>98.26333333333334</ele>
			</trkpt>
			<trkpt lat="35.15964783333333" lon="129.183642">
				<ele>98.66166666666666</ele>
			</trkpt>
			<trkpt lat="35.159572" lon="129.18359800000002">
				<ele>99.06</ele>
			</trkpt>
			<trkpt lat="35.15949616666667" lon="129.18355400000002">
				<ele>99.45833333333334</ele>
			</trkpt>
			<trkpt lat="35.15942033333334" lon="129.18351">
				<ele>99.85666666666667</ele>
			</trkpt>
			<trkpt lat="35.1593445" lon="129.183466">
				<ele>100.255</ele>
			</trkpt>
			<trkpt lat="35.15926866666667" lon="129.183422">
				<ele>100.65333333333334</ele>
			</trkpt>
			<trkpt lat="35.159192833333336" lon="129.183378">
				<ele>101.05166666666668</ele>
			</trkpt>
			<trkpt lat="35.159117" lon="129.183334">
				<ele>101.45</ele>
			</trkpt>
			<trkpt lat="35.15903892307693" lon="129.18328546153847">
				<ele>101.67538461538462</ele>
			</trkpt>
			<trkpt lat="35.158960846153846" lon="129.18323692307692">
				<ele>101.90076923076923</ele>
			</trkpt>
			<trkpt lat="35.15888276923077" lon="129.1831883846154">
				<ele>102.12615384615384</ele>
			</trkpt>
			<trkpt lat="35.15880469230769" lon="129.18313984615384">
				<ele>102.35153846153847</ele>
			</trkpt>
			<trkpt lat="35.158726615384616" lon="129.1830913076923">
				<ele>102.57692307692308</ele>
			</trkpt>
			<trkpt lat="35.15864853846154" lon="129.18304276923078">
				<ele>102.80230769230769</ele>
			</trkpt>
			<trkpt lat="35.15857046153846" lon="129.18299423076922">
				<ele>103.0276923076923</ele>
			</trkpt>
			<trkpt lat="35.158492384615386" lon="129.1829456923077">
				<ele>103.25307692307692</ele>
			</trkpt>
			<trkpt lat="35.15841430769231" lon="129.18289715384617">
				<ele>103.47846153846153</ele>
			</trkpt>
			<trkpt lat="35.15833623076923" lon="129.18284861538461">
				<ele>103.70384615384616</ele>
			</trkpt>
			<trkpt lat="35.158258153846155" lon="129.1828000769231">
				<ele>103.92923076923077</ele>
			</trkpt>
			<trkpt lat="35.158180076923074" lon="129.18275153846153">
				<ele>104.15461538461538</ele>
			</trkpt>
			<trkpt lat="35.158102" lon="129.182703">
				<ele>104.38</ele>
			</trkpt>
			<trkpt lat="35.158031625" lon="129.182653375">
				<ele>104.7475</ele>
			</trkpt>
			<trkpt lat="35.15796125" lon="129.18260375">
				<ele>105.115</ele>
			</trkpt>
			<trkpt lat="35.157890875" lon="129.182554125">
				<ele>105.48249999999999</ele>
			</trkpt>
			<trkpt lat="35.1578205" lon="129.1825045">
				<ele>105.85</ele>
			</trkpt>
			<trkpt lat="35.157750125" lon="129.18245487500002">
				<ele>106.2175</ele>
			</trkpt>
			<trkpt lat="35.15767975" lon="129.18240525000002">
				<ele>106.585</ele>
			</trkpt>
			<trkpt lat="35.157609375" lon="129.182355625">
				<ele>106.95249999999999</ele>
			</trkpt>
			<trkpt lat="35.157539" lon="129.182306">
				<ele>107.32</ele>
			</trkpt>
			<trkpt lat="35.15749066666667" lon="129.18226133333334">
				<ele>107.60333333333332</ele>
			</trkpt>
			<trkpt lat="35.15744233333333" lon="129.18221666666668">
				<ele>107.88666666666667</ele>
			</trkpt>
			<trkpt lat="35.157394" lon="129.182172">
				<ele>108.17</ele>
			</trkpt>
			<trkpt lat="35.157329749999995" lon="129.18209975000002">
				<ele>108.86</ele>
			</trkpt>
			<trkpt lat="35.157265499999994" lon="129.1820275">
				<ele>109.55000000000001</ele>
			</trkpt>
			<trkpt lat="35.15720125" lon="129.18195525">
				<ele>110.24000000000001</ele>
			</trkpt>
			<trkpt lat="35.157137" lon="129.181883">
				<ele>110.93</ele>
			</trkpt>
			<trkpt lat="35.1570825" lon="129.18179800000001">
				<ele>110.93</ele>
			</trkpt>
			<trkpt lat="35.157028" lon="129.181713">
				<ele>110.93</ele>
			</trkpt>
			<trkpt lat="35.156999" lon="129.18161008333334">
				<ele>109.84333333333333</ele>
			</trkpt>
			<trkpt lat="35.15697" lon="129.18150716666668">
				<ele>108.75666666666667</ele>
			</trkpt>
			<trkpt lat="35.156940999999996" lon="129.18140425">
				<ele>107.67</ele>
			</trkpt>
			<trkpt lat="35.156912" lon="129.18130133333332">
				<ele>106.58333333333334</ele>
			</trkpt>
			<trkpt lat="35.156883" lon="129.18119841666666">
				<ele>105.49666666666667</ele>
			</trkpt>
			<trkpt lat="35.156853999999996" lon="129.1810955">
				<ele>104.41</ele>
			</trkpt>
			<trkpt lat="35.156825" lon="129.18099258333334">
				<ele>103.32333333333334</ele>
			</trkpt>
			<trkpt lat="35.156796" lon="129.18088966666667">
				<ele>102.23666666666666</ele>
			</trkpt>
			<trkpt lat="35.156767" lon="129.18078674999998">
				<ele>101.15</ele>
			</trkpt>
			<trkpt lat="35.156738000000004" lon="129.18068383333332">
				<ele>100.06333333333333</ele>
			</trkpt>
			<trkpt lat="35.156709" lon="129.18058091666666">
				<ele>98.97666666666667</ele>
			</trkpt>
			<trkpt lat="35.15668" lon="129.180478">
				<ele>97.89</ele>
			</trkpt>
			<trkpt lat="35.156657333333335" lon="129.18037716666666">
				<ele>96.90583333333333</ele>
			</trkpt>
			<trkpt lat="35.15663466666667" lon="129.18027633333332">
				<ele>95.92166666666667</ele>
			</trkpt>
			<trkpt lat="35.156612" lon="129.1801755">
				<ele>94.9375</ele>
			</trkpt>
			<trkpt lat="35.156589333333336" lon="129.18007466666666">
				<ele>93.95333333333333</ele>
			</trkpt>
			<trkpt lat="35.15656666666667" lon="129.17997383333332">
				<ele>92.96916666666667</ele>
			</trkpt>
			<trkpt lat="35.156544" lon="129.179873">
				<ele>91.985</ele>
			</trkpt>
			<trkpt lat="35.15652133333333" lon="129.17977216666668">
				<ele>91.00083333333333</ele>
			</trkpt>
			<trkpt lat="35.156498666666664" lon="129.17967133333335">
				<ele>90.01666666666667</ele>
			</trkpt>
			<trkpt lat="35.156476" lon="129.1795705">
				<ele>89.0325</ele>
			</trkpt>
			<trkpt lat="35.15645333333333" lon="129.17946966666668">
				<ele>88.04833333333333</ele>
			</trkpt>
			<trkpt lat="35.156430666666665" lon="129.17936883333334">
				<ele>87.06416666666667</ele>
			</trkpt>
			<trkpt lat="35.156408" lon="129.179268">
				<ele>86.08</ele>
			</trkpt>
			<trkpt lat="35.1563895" lon="129.17916216666669">
				<ele>85.28</ele>
			</trkpt>
			<trkpt lat="35.156371" lon="129.17905633333334">
				<ele>84.48</ele>
			</trkpt>
			<trkpt lat="35.1563525" lon="129.17895049999998">
				<ele>83.68</ele>
			</trkpt>
			<trkpt lat="35.156334" lon="129.17884466666666">
				<ele>82.88</ele>
			</trkpt>
			<trkpt lat="35.156315500000005" lon="129.17873883333334">
				<ele>82.08</ele>
			</trkpt>
			<trkpt lat="35.156297" lon="129.178633">
				<ele>81.28</ele>
			</trkpt>
			<trkpt lat="35.156287" lon="129.17854524999998">
				<ele>80.4825</ele>
			</trkpt>
			<trkpt lat="35.156277" lon="129.17845749999998">
				<ele>79.685</ele>
			</trkpt>
			<trkpt lat="35.156267" lon="129.17836975">
				<ele>78.8875</ele>
			</trkpt>
			<trkpt lat="35.156257" lon="129.178282">
				<ele>78.09</ele>
			</trkpt>
			<trkpt lat="35.15625675" lon="129.17818575">
				<ele>77.13250000000001</ele>
			</trkpt>
			<trkpt lat="35.1562565" lon="129.1780895">
				<ele>76.17500000000001</ele>
			</trkpt>
			<trkpt lat="35.15625625" lon="129.17799325">
				<ele>75.2175</ele>
			</trkpt>
			<trkpt lat="35.156256" lon="129.177897">
				<ele>74.26</ele>
			</trkpt>
			<trkpt lat="35.156286" lon="129.177819">
				<ele>73.31333333333333</ele>
			</trkpt>
			<trkpt lat="35.156316" lon="129.177741">
				<ele>72.36666666666667</ele>
			</trkpt>
			<trkpt lat="35.156346" lon="129.177663">
				<ele>71.42</ele>
			</trkpt>
			<trkpt lat="35.15639766666666" lon="129.17757922222222">
				<ele>70.28166666666667</ele>
			</trkpt>
			<trkpt lat="35.156449333333335" lon="129.17749544444445">
				<ele>69.14333333333333</ele>
			</trkpt>
			<trkpt lat="35.156501" lon="129.17741166666667">
				<ele>68.005</ele>
			</trkpt>
			<trkpt lat="35.15655266666667" lon="129.1773278888889">
				<ele>66.86666666666667</ele>
			</trkpt>
			<trkpt lat="35.156604333333334" lon="129.1772441111111">
				<ele>65.72833333333334</ele>
			</trkpt>
			<trkpt lat="35.156656" lon="129.17716033333332">
				<ele>64.59</ele>
			</trkpt>
			<trkpt lat="35.15670766666667" lon="129.17707655555554">
				<ele>63.45166666666667</ele>
			</trkpt>
			<trkpt lat="35.15675933333333" lon="129.17699277777777">
				<ele>62.31333333333333</ele>
			</trkpt>
			<trkpt lat="35.156811000000005" lon="129.176909">
				<ele>61.175</ele>
			</trkpt>
			<trkpt lat="35.15686266666667" lon="129.17682522222222">
				<ele>60.03666666666667</ele>
			</trkpt>
			<trkpt lat="35.15691433333333" lon="129.17674144444445">
				<ele>58.89833333333333</ele>
			</trkpt>
			<trkpt lat="35.156966000000004" lon="129.17665766666667">
				<ele>57.760000000000005</ele>
			</trkpt>
			<trkpt lat="35.15701766666667" lon="129.1765738888889">
				<ele>56.62166666666667</ele>
			</trkpt>
			<trkpt lat="35.15706933333333" lon="129.1764901111111">
				<ele>55.483333333333334</ele>
			</trkpt>
			<trkpt lat="35.157121000000004" lon="129.17640633333332">
				<ele>54.345</ele>
			</trkpt>
			<trkpt lat="35.15717266666667" lon="129.17632255555554">
				<ele>53.20666666666666</ele>
			</trkpt>
			<trkpt lat="35.15722433333334" lon="129.17623877777777">
				<ele>52.068333333333335</ele>
			</trkpt>
			<trkpt lat="35.157276" lon="129.176155">
				<ele>50.93</ele>
			</trkpt>
			<trkpt lat="35.1573275" lon="129.17607049999998">
				<ele>50.625</ele>
			</trkpt>
			<trkpt lat="35.157379" lon="129.175986">
				<ele>50.32</ele>
			</trkpt>
			<trkpt lat="35.157438" lon="129.1759045">
				<ele>50.085</ele>
			</trkpt>
			<trkpt lat="35.157497" lon="129.17582299999998">
				<ele>49.85</ele>
			</trkpt>
			<trkpt lat="35.157556" lon="129.1757415">
				<ele>49.615</ele>
			</trkpt>
			<trkpt lat="35.157615" lon="129.17566">
				<ele>49.38</ele>
			</trkpt>
			<trkpt lat="35.15767675" lon="129.17559849999998">
				<ele>48.9375</ele>
			</trkpt>
			<trkpt lat="35.1577385" lon="129.175537">
				<ele>48.495000000000005</ele>
			</trkpt>
			<trkpt lat="35.15780025" lon="129.1754755">
				<ele>48.0525</ele>
			</trkpt>
			<trkpt lat="35.157862" lon="129.175414">
				<ele>47.61</ele>
			</trkpt>
			<trkpt lat="35.1579302" lon="129.17536099999998">
				<ele>47.242</ele>
			</trkpt>
			<trkpt lat="35.157998400000004" lon="129.175308">
				<ele>46.874</ele>
			</trkpt>
			<trkpt lat="35.1580666" lon="129.175255">
				<ele>46.506</ele>
			</trkpt>
			<trkpt lat="35.1581348" lon="129.175202">
				<ele>46.138000000000005</ele>
			</trkpt>
			<trkpt lat="35.158203" lon="129.175149">
				<ele>45.77</ele>
			</trkpt>
			<trkpt lat="35.158256" lon="129.175094">
				<ele>45.41</ele>
			</trkpt>
			<trkpt lat="35.15829925" lon="129.175004">
				<ele>45.147499999999994</ele>
			</trkpt>
			<trkpt lat="35.1583425" lon="129.174914">
				<ele>44.885</ele>
			</trkpt>
			<trkpt lat="35.15838575" lon="129.174824">
				<ele>44.6225</ele>
			</trkpt>
			<trkpt lat="35.158429" lon="129.174734">
				<ele>44.36</ele>
			</trkpt>
			<trkpt lat="35.15847225" lon="129.174644">
				<ele>44.0975</ele>
			</trkpt>
			<trkpt lat="35.1585155" lon="129.174554">
				<ele>43.835</ele>
			</trkpt>
			<trkpt lat="35.158558750000005" lon="129.174464">
				<ele>43.572500000000005</ele>
			</trkpt>
			<trkpt lat="35.158602" lon="129.174374">
				<ele>43.31</ele>
			</trkpt>
			<trkpt lat="35.158654" lon="129.174309">
				<ele>42.755</ele>
			</trkpt>
			<trkpt lat="35.158706" lon="129.174244">
				<ele>42.2</ele>
			</trkpt>
			<trkpt lat="35.15877288888889" lon="129.174185">
				<ele>41.43888888888889</ele>
			</trkpt>
			<trkpt lat="35.15883977777778" lon="129.174126">
				<ele>40.67777777777778</ele>
			</trkpt>
			<trkpt lat="35.15890666666667" lon="129.17406699999998">
				<ele>39.91666666666667</ele>
			</trkpt>
			<trkpt lat="35.158973555555555" lon="129.174008">
				<ele>39.15555555555556</ele>
			</trkpt>
			<trkpt lat="35.15904044444445" lon="129.173949">
				<ele>38.394444444444446</ele>
			</trkpt>
			<trkpt lat="35.15910733333334" lon="129.17389">
				<ele>37.63333333333333</ele>
			</trkpt>
			<trkpt lat="35.15917422222223" lon="129.17383099999998">
				<ele>36.87222222222222</ele>
			</trkpt>
			<trkpt lat="35.159241111111115" lon="129.17377199999999">
				<ele>36.111111111111114</ele>
			</trkpt>
			<trkpt lat="35.159308" lon="129.173713">
				<ele>35.35</ele>
			</trkpt>
			<trkpt lat="35.159374923076925" lon="129.1736445">
				<ele>35.03692307692308</ele>
			</trkpt>
			<trkpt lat="35.15944184615385" lon="129.173576">
				<ele>34.723846153846154</ele>
			</trkpt>
			<trkpt lat="35.15950876923077" lon="129.1735075">
				<ele>34.41076923076923</ele>
			</trkpt>
			<trkpt lat="35.1595756923077" lon="129.173439">
				<ele>34.097692307692306</ele>
			</trkpt>
			<trkpt lat="35.15964261538462" lon="129.1733705">
				<ele>33.784615384615385</ele>
			</trkpt>
			<trkpt lat="35.15970953846154" lon="129.173302">
				<ele>33.471538461538465</ele>
			</trkpt>
			<trkpt lat="35.15977646153846" lon="129.17323349999998">
				<ele>33.15846153846154</ele>
			</trkpt>
			<trkpt lat="35.159843384615385" lon="129.17316499999998">
				<ele>32.84538461538462</ele>
			</trkpt>
			<trkpt lat="35.15991030769231" lon="129.17309649999999">
				<ele>32.5323076923077</ele>
			</trkpt>
			<trkpt lat="35.159977230769236" lon="129.173028">
				<ele>32.21923076923077</ele>
			</trkpt>
			<trkpt lat="35.16004415384616" lon="129.1729595">
				<ele>31.90615384615385</ele>
			</trkpt>
			<trkpt lat="35.16011107692308" lon="129.172891">
				<ele>31.593076923076925</ele>
			</trkpt>
			<trkpt lat="35.160178" lon="129.1728225">
				<ele>31.28</ele>
			</trkpt>
			<trkpt lat="35.160244923076924" lon="129.172754">
				<ele>30.966923076923077</ele>
			</trkpt>
			<trkpt lat="35.160311846153846" lon="129.1726855">
				<ele>30.653846153846153</ele>
			</trkpt>
			<trkpt lat="35.16037876923077" lon="129.172617">
				<ele>30.340769230769233</ele>
			</trkpt>
			<trkpt lat="35.1604456923077" lon="129.1725485">
				<ele>30.02769230769231</ele>
			</trkpt>
			<trkpt lat="35.16051261538462" lon="129.17248">
				<ele>29.714615384615385</ele>
			</trkpt>
			<trkpt lat="35.16057953846154" lon="129.1724115">
				<ele>29.401538461538465</ele>
			</trkpt>
			<trkpt lat="35.16064646153846" lon="129.17234299999998">
				<ele>29.08846153846154</ele>
			</trkpt>
			<trkpt lat="35.160713384615384" lon="129.1722745">
				<ele>28.775384615384617</ele>
			</trkpt>
			<trkpt lat="35.160780307692306" lon="129.172206">
				<ele>28.462307692307693</ele>
			</trkpt>
			<trkpt lat="35.160847230769235" lon="129.1721375">
				<ele>28.14923076923077</ele>
			</trkpt>
			<trkpt lat="35.16091415384616" lon="129.172069">
				<ele>27.83615384615385</ele>
			</trkpt>
			<trkpt lat="35.16098107692308" lon="129.1720005">
				<ele>27.523076923076925</ele>
			</trkpt>
			<trkpt lat="35.161048" lon="129.171932">
				<ele>27.21</ele>
			</trkpt>
			<trkpt lat="35.161072000000004" lon="129.17186800000002">
				<ele>26.585</ele>
			</trkpt>
			<trkpt lat="35.161096" lon="129.171804">
				<ele>25.96</ele>
			</trkpt>
			<trkpt lat="35.161157333333335" lon="129.171785">
				<ele>25.803333333333335</ele>
			</trkpt>
			<trkpt lat="35.16121866666666" lon="129.17176600000002">
				<ele>25.646666666666665</ele>
			</trkpt>
			<trkpt lat="35.16128" lon="129.171747">
				<ele>25.49</ele>
			</trkpt>
			<trkpt lat="35.16121866666666" lon="129.17176600000002">
				<ele>25.646666666666665</ele>
			</trkpt>
			<trkpt lat="35.161157333333335" lon="129.171785">
				<ele>25.803333333333335</ele>
			</trkpt>
			<trkpt lat="35.161096" lon="129.171804">
				<ele>25.96</ele>
			</trkpt>
			<trkpt lat="35.161083500000004" lon="129.171716">
				<ele>25.475</ele>
			</trkpt>
			<trkpt lat="35.161071" lon="129.171628">
				<ele>24.990000000000002</ele>
			</trkpt>
			<trkpt lat="35.161058499999996" lon="129.17154">
				<ele>24.505</ele>
			</trkpt>
			<trkpt lat="35.161046" lon="129.171452">
				<ele>24.02</ele>
			</trkpt>
			<trkpt lat="35.161006" lon="129.171414">
				<ele>24.0</ele>
			</trkpt>
			<trkpt lat="35.161015" lon="129.171394">
				<ele>24.0</ele>
			</trkpt>
			<trkpt lat="35.1609565" lon="129.17135224999998">
				<ele>23.65</ele>
			</trkpt>
			<trkpt lat="35.160898" lon="129.1713105">
				<ele>23.3</ele>
			</trkpt>
			<trkpt lat="35.1608395" lon="129.17126875">
				<ele>22.950000000000003</ele>
			</trkpt>
			<trkpt lat="35.160781" lon="129.171227">
				<ele>22.6</ele>
			</trkpt>
			<trkpt lat="35.160703222222224" lon="129.17117444444443">
				<ele>21.631111111111114</ele>
			</trkpt>
			<trkpt lat="35.16062544444444" lon="129.17112188888888">
				<ele>20.662222222222223</ele>
			</trkpt>
			<trkpt lat="35.160547666666666" lon="129.17106933333332">
				<ele>19.693333333333335</ele>
			</trkpt>
			<trkpt lat="35.16046988888889" lon="129.17101677777777">
				<ele>18.724444444444444</ele>
			</trkpt>
			<trkpt lat="35.16039211111111" lon="129.1709642222222">
				<ele>17.755555555555556</ele>
			</trkpt>
			<trkpt lat="35.16031433333333" lon="129.17091166666665">
				<ele>16.78666666666667</ele>
			</trkpt>
			<trkpt lat="35.16023655555556" lon="129.1708591111111">
				<ele>15.81777777777778</ele>
			</trkpt>
			<trkpt lat="35.160158777777774" lon="129.17080655555554">
				<ele>14.84888888888889</ele>
			</trkpt>
			<trkpt lat="35.160081" lon="129.170754">
				<ele>13.88</ele>
			</trkpt>
		</trkseg>
	</trk>
</gpx>