<?xml version="1.0" encoding="utf-8" standalone="no"?>
<gpx creator="zepp" version="1.1" xmlns="http://www.topografix.com/GPX/1/1" xmlns:ns1="http://www.cluetrust.com/XML/GPXDATA/1/0" xmlns:ns2="http://www.garmin.com/xmlschemas/GpxExtensions/v3" xmlns:ns3="http://www.garmin.com/xmlschemas/TrackPointExtension/v1" xmlns:xsi="http://www.w3.org/2001/XMLSchema-instance" xsi:schemaLocation="http://www.topografix.com/GPX/1/1 http://www.topografix.com/GPX/11.xsd">
	<metadata>
		<name>프레제 동백섬</name>
	</metadata>
	<trk>
		<name>프레제 동백섬</name>
		<trkseg>
			<trkpt lat="35.155972" lon="129.143717">
				<ele>5.0</ele>
			</trkpt>
			<trkpt lat="35.15594284848485" lon="129.14381966666667">
				<ele>5.03</ele>
			</trkpt>
			<trkpt lat="35.1559136969697" lon="129.14392233333334">
				<ele>5.06</ele>
			</trkpt>
			<trkpt lat="35.15588454545454" lon="129.144025">
				<ele>5.09</ele>
			</trkpt>
			<trkpt lat="35.15585539393939" lon="129.14412766666666">
				<ele>5.12</ele>
			</trkpt>
			<trkpt lat="35.15582624242424" lon="129.14423033333335">
				<ele>5.15</ele>
			</trkpt>
			<trkpt lat="35.15579709090909" lon="129.14433300000002">
				<ele>5.18</ele>
			</trkpt>
			<trkpt lat="35.15576793939394" lon="129.14443566666668">
				<ele>5.21</ele>
			</trkpt>
			<trkpt lat="35.15573878787879" lon="129.14453833333334">
				<ele>5.24</ele>
			</trkpt>
			<trkpt lat="35.15570963636363" lon="129.144641">
				<ele>5.2700000000000005</ele>
			</trkpt>
			<trkpt lat="35.15568048484848" lon="129.14474366666667">
				<ele>5.3</ele>
			</trkpt>
			<trkpt lat="35.15565133333333" lon="129.14484633333333">
				<ele>5.33</ele>
			</trkpt>
			<trkpt lat="35.15562218181818" lon="129.144949">
				<ele>5.36</ele>
			</trkpt>
			<trkpt lat="35.15559303030303" lon="129.1450516666667">
				<ele>5.39</ele>
			</trkpt>
			<trkpt lat="35.15556387878787" lon="129.14515433333335">
				<ele>5.42</ele>
			</trkpt>
			<trkpt lat="35.15553472727272" lon="129.14525700000002">
				<ele>5.45</ele>
			</trkpt>
			<trkpt lat="35.15550557575757" lon="129.14535966666668">
				<ele>5.48</ele>
			</trkpt>
			<trkpt lat="35.15547642424242" lon="129.14546233333334">
				<ele>5.51</ele>
			</trkpt>
			<trkpt lat="35.15544727272727" lon="129.145565">
				<ele>5.54</ele>
			</trkpt>
			<trkpt lat="35.15541812121212" lon="129.14566766666667">
				<ele>5.57</ele>
			</trkpt>
			<trkpt lat="35.155388969696965" lon="129.14577033333333">
				<ele>5.6</ele>
			</trkpt>
			<trkpt lat="35.155359818181815" lon="129.14587300000002">
				<ele>5.63</ele>
			</trkpt>
			<trkpt lat="35.155330666666664" lon="129.1459756666667">
				<ele>5.66</ele>
			</trkpt>
			<trkpt lat="35.155301515151514" lon="129.14607833333335">
				<ele>5.69</ele>
			</trkpt>
			<trkpt lat="35.155272363636364" lon="129.146181">
				<ele>5.720000000000001</ele>
			</trkpt>
			<trkpt lat="35.155243212121206" lon="129.14628366666668">
				<ele>5.75</ele>
			</trkpt>
			<trkpt lat="35.155214060606056" lon="129.14638633333334">
				<ele>5.78</ele>
			</trkpt>
			<trkpt lat="35.155184909090906" lon="129.146489">
				<ele>5.8100000000000005</ele>
			</trkpt>
			<trkpt lat="35.155155757575756" lon="129.14659166666667">
				<ele>5.84</ele>
			</trkpt>
			<trkpt lat="35.155126606060605" lon="129.14669433333336">
				<ele>5.87</ele>
			</trkpt>
			<trkpt lat="35.155097454545455" lon="129.14679700000002">
				<ele>5.9</ele>
			</trkpt>
			<trkpt lat="35.1550683030303" lon="129.14689966666668">
				<ele>5.93</ele>
			</trkpt>
			<trkpt lat="35.15503915151515" lon="129.14700233333335">
				<ele>5.96</ele>
			</trkpt>
			<trkpt lat="35.15501" lon="129.147105">
				<ele>5.99</ele>
			</trkpt>
			<trkpt lat="35.155075" lon="129.147123">
				<ele>5.91</ele>
			</trkpt>
			<trkpt lat="35.155132" lon="129.147138">
				<ele>5.84</ele>
			</trkpt>
			<trkpt lat="35.1552072" lon="129.1471678">
				<ele>5.782</ele>
			</trkpt>
			<trkpt lat="35.1552824" lon="129.1471976">
				<ele>5.724</ele>
			</trkpt>
			<trkpt lat="35.1553576" lon="129.14722740000002">
				<ele>5.6659999999999995</ele>
			</trkpt>
			<trkpt lat="35.1554328" lon="129.1472572">
				<ele>5.608</ele>
			</trkpt>
			<trkpt lat="35.155508" lon="129.147287">
				<ele>5.55</ele>
			</trkpt>
			<trkpt lat="35.155582499999994" lon="129.14732500000002">
				<ele>5.265000000000001</ele>
			</trkpt>
			<trkpt lat="35.155657" lon="129.147363">
				<ele>4.98</ele>
			</trkpt>
			<trkpt lat="35.15571433333333" lon="129.14739733333334">
				<ele>4.54</ele>
			</trkpt>
			<trkpt lat="35.155771666666666" lon="129.14743166666668">
				<ele>4.1000000000000005</ele>
			</trkpt>
			<trkpt lat="35.155829" lon="129.147466">
				<ele>3.66</ele>
			</trkpt>
			<trkpt lat="35.155902999999995" lon="129.147527">
				<ele>3.2133333333333334</ele>
			</trkpt>
			<trkpt lat="35.155977" lon="129.147588">
				<ele>2.7666666666666666</ele>
			</trkpt>
			<trkpt lat="35.156051" lon="129.147649">
				<ele>2.32</ele>
			</trkpt>
			<trkpt lat="35.1561148" lon="129.1477146">
				<ele>2.04</ele>
			</trkpt>
			<trkpt lat="35.1561786" lon="129.1477802">
				<ele>1.7599999999999998</ele>
			</trkpt>
			<trkpt lat="35.156242400000004" lon="129.1478458">
				<ele>1.48</ele>
			</trkpt>
			<trkpt lat="35.1563062" lon="129.1479114">
				<ele>1.2</ele>
			</trkpt>
			<trkpt lat="35.15637" lon="129.147977">
				<ele>0.92</ele>
			</trkpt>
			<trkpt lat="35.1564156" lon="129.1480546">
				<ele>0.882</ele>
			</trkpt>
			<trkpt lat="35.1564612" lon="129.1481322">
				<ele>0.844</ele>
			</trkpt>
			<trkpt lat="35.1565068" lon="129.14820980000002">
				<ele>0.806</ele>
			</trkpt>
			<trkpt lat="35.1565524" lon="129.14828740000002">
				<ele>0.768</ele>
			</trkpt>
			<trkpt lat="35.156598" lon="129.148365">
				<ele>0.73</ele>
			</trkpt>
			<trkpt lat="35.156597" lon="129.148425">
				<ele>0.87</ele>
			</trkpt>
			<trkpt lat="35.156607" lon="129.148468">
				<ele>1.02</ele>
			</trkpt>
			<trkpt lat="35.156655" lon="129.1485325">
				<ele>1.385</ele>
			</trkpt>
			<trkpt lat="35.156703" lon="129.148597">
				<ele>1.75</ele>
			</trkpt>
			<trkpt lat="35.156733" lon="129.148656">
				<ele>2.02</ele>
			</trkpt>
			<trkpt lat="35.156755" lon="129.148714">
				<ele>2.28</ele>
			</trkpt>
			<trkpt lat="35.1567725" lon="129.1488005">
				<ele>2.6399999999999997</ele>
			</trkpt>
			<trkpt lat="35.15679" lon="129.148887">
				<ele>3.0</ele>
			</trkpt>
			<trkpt lat="35.156812" lon="129.148931">
				<ele>3.14</ele>
			</trkpt>
			<trkpt lat="35.156841" lon="129.148952">
				<ele>3.33</ele>
			</trkpt>
			<trkpt lat="35.156883" lon="129.14904900000002">
				<ele>3.7</ele>
			</trkpt>
			<trkpt lat="35.156925" lon="129.149146">
				<ele>4.07</ele>
			</trkpt>
			<trkpt lat="35.156967" lon="129.149243">
				<ele>4.44</ele>
			</trkpt>
			<trkpt lat="35.156991777777776" lon="129.14934566666668">
				<ele>4.595555555555556</ele>
			</trkpt>
			<trkpt lat="35.15701655555556" lon="129.14944833333334">
				<ele>4.751111111111111</ele>
			</trkpt>
			<trkpt lat="35.15704133333333" lon="129.149551">
				<ele>4.906666666666667</ele>
			</trkpt>
			<trkpt lat="35.157066111111114" lon="129.14965366666667">
				<ele>5.062222222222222</ele>
			</trkpt>
			<trkpt lat="35.15709088888889" lon="129.14975633333336">
				<ele>5.217777777777778</ele>
			</trkpt>
			<trkpt lat="35.15711566666667" lon="129.14985900000002">
				<ele>5.373333333333333</ele>
			</trkpt>
			<trkpt lat="35.157140444444444" lon="129.14996166666668">
				<ele>5.528888888888889</ele>
			</trkpt>
			<trkpt lat="35.157165222222226" lon="129.15006433333335">
				<ele>5.684444444444445</ele>
			</trkpt>
			<trkpt lat="35.15719" lon="129.150167">
				<ele>5.84</ele>
			</trkpt>
			<trkpt lat="35.15721633333333" lon="129.1502695">
				<ele>5.458333333333333</ele>
			</trkpt>
			<trkpt lat="35.15724266666667" lon="129.150372">
				<ele>5.076666666666666</ele>
			</trkpt>
			<trkpt lat="35.157269" lon="129.1504745">
				<ele>4.695</ele>
			</trkpt>
			<trkpt lat="35.15729533333333" lon="129.150577">
				<ele>4.3133333333333335</ele>
			</trkpt>
			<trkpt lat="35.15732166666667" lon="129.1506795">
				<ele>3.9316666666666666</ele>
			</trkpt>
			<trkpt lat="35.157348" lon="129.150782">
				<ele>3.55</ele>
			</trkpt>
			<trkpt lat="35.157375" lon="129.1508365">
				<ele>3.34</ele>
			</trkpt>
			<trkpt lat="35.157402" lon="129.150891">
				<ele>3.13</ele>
			</trkpt>
			<trkpt lat="35.157448" lon="129.15094399999998">
				<ele>3.06</ele>
			</trkpt>
			<trkpt lat="35.157494" lon="129.150997">
				<ele>2.99</ele>
			</trkpt>
			<trkpt lat="35.1575455" lon="129.151038">
				<ele>2.995</ele>
			</trkpt>
			<trkpt lat="35.157597" lon="129.151079">
				<ele>3.0</ele>
			</trkpt>
			<trkpt lat="35.1576465" lon="129.15112">
				<ele>3.05</ele>
			</trkpt>
			<trkpt lat="35.157696" lon="129.151161">
				<ele>3.1</ele>
			</trkpt>
			<trkpt lat="35.1577315" lon="129.15119800000002">
				<ele>3.06</ele>
			</trkpt>
			<trkpt lat="35.157767" lon="129.151235">
				<ele>3.02</ele>
			</trkpt>
			<trkpt lat="35.157788249999996" lon="129.151318">
				<ele>3.3875</ele>
			</trkpt>
			<trkpt lat="35.1578095" lon="129.15140100000002">
				<ele>3.755</ele>
			</trkpt>
			<trkpt lat="35.15783075" lon="129.151484">
				<ele>4.1225000000000005</ele>
			</trkpt>
			<trkpt lat="35.157852" lon="129.151567">
				<ele>4.49</ele>
			</trkpt>
			<trkpt lat="35.1578562" lon="129.1516646">
				<ele>4.55</ele>
			</trkpt>
			<trkpt lat="35.1578604" lon="129.1517622">
				<ele>4.61</ele>
			</trkpt>
			<trkpt lat="35.1578646" lon="129.15185979999998">
				<ele>4.67</ele>
			</trkpt>
			<trkpt lat="35.1578688" lon="129.1519574">
				<ele>4.73</ele>
			</trkpt>
			<trkpt lat="35.157873" lon="129.152055">
				<ele>4.79</ele>
			</trkpt>
			<trkpt lat="35.157863000000006" lon="129.15211599999998">
				<ele>4.525</ele>
			</trkpt>
			<trkpt lat="35.157853" lon="129.152177">
				<ele>4.26</ele>
			</trkpt>
			<trkpt lat="35.157829" lon="129.152239">
				<ele>3.76</ele>
			</trkpt>
			<trkpt lat="35.15778666666667" lon="129.152312">
				<ele>3.12</ele>
			</trkpt>
			<trkpt lat="35.15774433333333" lon="129.152385">
				<ele>2.48</ele>
			</trkpt>
			<trkpt lat="35.157702" lon="129.152458">
				<ele>1.84</ele>
			</trkpt>
			<trkpt lat="35.1576304" lon="129.152516">
				<ele>1.856</ele>
			</trkpt>
			<trkpt lat="35.157558800000004" lon="129.152574">
				<ele>1.872</ele>
			</trkpt>
			<trkpt lat="35.1574872" lon="129.152632">
				<ele>1.888</ele>
			</trkpt>
			<trkpt lat="35.1574156" lon="129.15269">
				<ele>1.904</ele>
			</trkpt>
			<trkpt lat="35.157344" lon="129.152748">
				<ele>1.92</ele>
			</trkpt>
			<trkpt lat="35.157270000000004" lon="129.1528098888889">
				<ele>2.6844444444444444</ele>
			</trkpt>
			<trkpt lat="35.157196" lon="129.1528717777778">
				<ele>3.448888888888889</ele>
			</trkpt>
			<trkpt lat="35.157122" lon="129.15293366666666">
				<ele>4.213333333333333</ele>
			</trkpt>
			<trkpt lat="35.157048" lon="129.15299555555555">
				<ele>4.977777777777778</ele>
			</trkpt>
			<trkpt lat="35.156974" lon="129.15305744444444">
				<ele>5.742222222222223</ele>
			</trkpt>
			<trkpt lat="35.1569" lon="129.15311933333334">
				<ele>6.506666666666667</ele>
			</trkpt>
			<trkpt lat="35.156826" lon="129.1531812222222">
				<ele>7.271111111111111</ele>
			</trkpt>
			<trkpt lat="35.156752" lon="129.1532431111111">
				<ele>8.035555555555556</ele>
			</trkpt>
			<trkpt lat="35.156678" lon="129.153305">
				<ele>8.8</ele>
			</trkpt>
			<trkpt lat="35.156617499999996" lon="129.1533275">
				<ele>9.355</ele>
			</trkpt>
			<trkpt lat="35.156557" lon="129.15335">
				<ele>9.91</ele>
			</trkpt>
			<trkpt lat="35.156531199999996" lon="129.1532662">
				<ele>10.002</ele>
			</trkpt>
			<trkpt lat="35.1565054" lon="129.1531824">
				<ele>10.094</ele>
			</trkpt>
			<trkpt lat="35.1564796" lon="129.1530986">
				<ele>10.186</ele>
			</trkpt>
			<trkpt lat="35.1564538" lon="129.1530148">
				<ele>10.277999999999999</ele>
			</trkpt>
			<trkpt lat="35.156428" lon="129.152931">
				<ele>10.37</ele>
			</trkpt>
			<trkpt lat="35.156396" lon="129.152901">
				<ele>10.43</ele>
			</trkpt>
			<trkpt lat="35.156337666666666" lon="129.152847">
				<ele>10.533333333333333</ele>
			</trkpt>
			<trkpt lat="35.15627933333334" lon="129.152793">
				<ele>10.636666666666667</ele>
			</trkpt>
			<trkpt lat="35.156221" lon="129.152739">
				<ele>10.74</ele>
			</trkpt>
			<trkpt lat="35.156149375" lon="129.152683625">
				<ele>10.875</ele>
			</trkpt>
			<trkpt lat="35.15607775" lon="129.15262825">
				<ele>11.01</ele>
			</trkpt>
			<trkpt lat="35.156006125000005" lon="129.152572875">
				<ele>11.145</ele>
			</trkpt>
			<trkpt lat="35.1559345" lon="129.1525175">
				<ele>11.280000000000001</ele>
			</trkpt>
			<trkpt lat="35.155862875" lon="129.152462125">
				<ele>11.415000000000001</ele>
			</trkpt>
			<trkpt lat="35.15579125" lon="129.15240675">
				<ele>11.55</ele>
			</trkpt>
			<trkpt lat="35.155719625" lon="129.152351375">
				<ele>11.685</ele>
			</trkpt>
			<trkpt lat="35.155648" lon="129.152296">
				<ele>11.82</ele>
			</trkpt>
			<trkpt lat="35.155606" lon="129.15225700000002">
				<ele>11.875</ele>
			</trkpt>
			<trkpt lat="35.155564" lon="129.152218">
				<ele>11.93</ele>
			</trkpt>
			<trkpt lat="35.155494499999996" lon="129.15215375">
				<ele>12.0225</ele>
			</trkpt>
			<trkpt lat="35.155424999999994" lon="129.1520895">
				<ele>12.115</ele>
			</trkpt>
			<trkpt lat="35.1553555" lon="129.15202525">
				<ele>12.2075</ele>
			</trkpt>
			<trkpt lat="35.155286" lon="129.151961">
				<ele>12.3</ele>
			</trkpt>
			<trkpt lat="35.155244499999995" lon="129.151884">
				<ele>12.0075</ele>
			</trkpt>
			<trkpt lat="35.155203" lon="129.15180700000002">
				<ele>11.715</ele>
			</trkpt>
			<trkpt lat="35.1551615" lon="129.15173000000001">
				<ele>11.422500000000001</ele>
			</trkpt>
			<trkpt lat="35.15512" lon="129.151653">
				<ele>11.13</ele>
			</trkpt>
			<trkpt lat="35.155041" lon="129.1516235">
				<ele>12.055</ele>
			</trkpt>
			<trkpt lat="35.154962" lon="129.151594">
				<ele>12.98</ele>
			</trkpt>
			<trkpt lat="35.154883" lon="129.1515645">
				<ele>13.905000000000001</ele>
			</trkpt>
			<trkpt lat="35.154804" lon="129.151535">
				<ele>14.83</ele>
			</trkpt>
			<trkpt lat="35.15474144444444" lon="129.15145977777777">
				<ele>14.547777777777778</ele>
			</trkpt>
			<trkpt lat="35.15467888888889" lon="129.15138455555555">
				<ele>14.265555555555556</ele>
			</trkpt>
			<trkpt lat="35.15461633333333" lon="129.15130933333333">
				<ele>13.983333333333333</ele>
			</trkpt>
			<trkpt lat="35.15455377777778" lon="129.1512341111111">
				<ele>13.70111111111111</ele>
			</trkpt>
			<trkpt lat="35.15449122222222" lon="129.1511588888889">
				<ele>13.418888888888889</ele>
			</trkpt>
			<trkpt lat="35.15442866666667" lon="129.15108366666666">
				<ele>13.136666666666667</ele>
			</trkpt>
			<trkpt lat="35.15436611111111" lon="129.15100844444444">
				<ele>12.854444444444443</ele>
			</trkpt>
			<trkpt lat="35.15430355555556" lon="129.15093322222222">
				<ele>12.572222222222221</ele>
			</trkpt>
			<trkpt lat="35.154241" lon="129.150858">
				<ele>12.29</ele>
			</trkpt>
			<trkpt lat="35.1541735" lon="129.150803">
				<ele>11.195</ele>
			</trkpt>
			<trkpt lat="35.154106" lon="129.150748">
				<ele>10.1</ele>
			</trkpt>
			<trkpt lat="35.154050999999995" lon="129.150812">
				<ele>12.75</ele>
			</trkpt>
			<trkpt lat="35.153996" lon="129.150876">
				<ele>15.4</ele>
			</trkpt>
			<trkpt lat="35.15395433333333" lon="129.15096766666667">
				<ele>19.19</ele>
			</trkpt>
			<trkpt lat="35.15391266666667" lon="129.15105933333334">
				<ele>22.98</ele>
			</trkpt>
			<trkpt lat="35.153871" lon="129.151151">
				<ele>26.77</ele>
			</trkpt>
			<trkpt lat="35.1537984" lon="129.1511242">
				<ele>26.598</ele>
			</trkpt>
			<trkpt lat="35.153725800000004" lon="129.1510974">
				<ele>26.426</ele>
			</trkpt>
			<trkpt lat="35.1536532" lon="129.1510706">
				<ele>26.254</ele>
			</trkpt>
			<trkpt lat="35.153580600000005" lon="129.1510438">
				<ele>26.082</ele>
			</trkpt>
			<trkpt lat="35.153508" lon="129.151017">
				<ele>25.91</ele>
			</trkpt>
			<trkpt lat="35.153483" lon="129.151017">
				<ele>25.92</ele>
			</trkpt>
			<trkpt lat="35.1534045" lon="129.151017">
				<ele>25.98</ele>
			</trkpt>
			<trkpt lat="35.153326" lon="129.151017">
				<ele>26.04</ele>
			</trkpt>
			<trkpt lat="35.153255" lon="129.1510465">
				<ele>26.725</ele>
			</trkpt>
			<trkpt lat="35.153184" lon="129.151076">
				<ele>27.41</ele>
			</trkpt>
			<trkpt lat="35.15312433333334" lon="129.15112333333332">
				<ele>27.516666666666666</ele>
			</trkpt>
			<trkpt lat="35.153064666666666" lon="129.15117066666667">
				<ele>27.623333333333335</ele>
			</trkpt>
			<trkpt lat="35.153005" lon="129.151218">
				<ele>27.73</ele>
			</trkpt>
			<trkpt lat="35.1529535" lon="129.1512875">
				<ele>27.666666666666668</ele>
			</trkpt>
			<trkpt lat="35.152902" lon="129.151357">
				<ele>27.603333333333335</ele>
			</trkpt>
			<trkpt lat="35.1528505" lon="129.1514265">
				<ele>27.54</ele>
			</trkpt>
			<trkpt lat="35.152799" lon="129.151496">
				<ele>27.476666666666667</ele>
			</trkpt>
			<trkpt lat="35.1527475" lon="129.1515655">
				<ele>27.413333333333334</ele>
			</trkpt>
			<trkpt lat="35.152696" lon="129.151635">
				<ele>27.35</ele>
			</trkpt>
			<trkpt lat="35.1526545" lon="129.15172425">
				<ele>26.2025</ele>
			</trkpt>
			<trkpt lat="35.152613" lon="129.1518135">
				<ele>25.055</ele>
			</trkpt>
			<trkpt lat="35.1525715" lon="129.15190275">
				<ele>23.907500000000002</ele>
			</trkpt>
			<trkpt lat="35.15253" lon="129.151992">
				<ele>22.76</ele>
			</trkpt>
			<trkpt lat="35.152491" lon="129.15208675">
				<ele>21.2725</ele>
			</trkpt>
			<trkpt lat="35.152452" lon="129.15218149999998">
				<ele>19.785</ele>
			</trkpt>
			<trkpt lat="35.152413" lon="129.15227625">
				<ele>18.2975</ele>
			</trkpt>
			<trkpt lat="35.152374" lon="129.152371">
				<ele>16.81</ele>
			</trkpt>
			<trkpt lat="35.152354" lon="129.152426">
				<ele>16.11</ele>
			</trkpt>
			<trkpt lat="35.152347" lon="129.152503">
				<ele>15.18</ele>
			</trkpt>
			<trkpt lat="35.152371" lon="129.152567">
				<ele>15.11</ele>
			</trkpt>
			<trkpt lat="35.152419" lon="129.152606">
				<ele>15.72</ele>
			</trkpt>
			<trkpt lat="35.152494000000004" lon="129.1526385">
				<ele>16.855</ele>
			</trkpt>
			<trkpt lat="35.152569" lon="129.152671">
				<ele>17.99</ele>
			</trkpt>
			<trkpt lat="35.152637" lon="129.152672">
				<ele>19.633333333333333</ele>
			</trkpt>
			<trkpt lat="35.152705000000005" lon="129.152673">
				<ele>21.276666666666667</ele>
			</trkpt>
			<trkpt lat="35.152773" lon="129.152674">
				<ele>22.92</ele>
			</trkpt>
			<trkpt lat="35.152843" lon="129.152687">
				<ele>23.81</ele>
			</trkpt>
			<trkpt lat="35.152912666666666" lon="129.15269966666665">
				<ele>24.7</ele>
			</trkpt>
			<trkpt lat="35.152982333333334" lon="129.15271233333334">
				<ele>25.59</ele>
			</trkpt>
			<trkpt lat="35.153052" lon="129.152725">
				<ele>26.48</ele>
			</trkpt>
			<trkpt lat="35.15313211111111" lon="129.1527548888889">
				<ele>26.8</ele>
			</trkpt>
			<trkpt lat="35.15321222222222" lon="129.15278477777778">
				<ele>27.12</ele>
			</trkpt>
			<trkpt lat="35.15329233333333" lon="129.15281466666667">
				<ele>27.44</ele>
			</trkpt>
			<trkpt lat="35.15337244444444" lon="129.15284455555556">
				<ele>27.76</ele>
			</trkpt>
			<trkpt lat="35.15345255555556" lon="129.15287444444445">
				<ele>28.08</ele>
			</trkpt>
			<trkpt lat="35.15353266666667" lon="129.15290433333334">
				<ele>28.4</ele>
			</trkpt>
			<trkpt lat="35.15361277777778" lon="129.15293422222223">
				<ele>28.72</ele>
			</trkpt>
			<trkpt lat="35.15369288888889" lon="129.15296411111112">
				<ele>29.04</ele>
			</trkpt>
			<trkpt lat="35.153773" lon="129.152994">
				<ele>29.36</ele>
			</trkpt>
			<trkpt lat="35.15384975" lon="129.15301525">
				<ele>29.189999999999998</ele>
			</trkpt>
			<trkpt lat="35.1539265" lon="129.15303649999998">
				<ele>29.02</ele>
			</trkpt>
			<trkpt lat="35.15400325" lon="129.15305775">
				<ele>28.85</ele>
			</trkpt>
			<trkpt lat="35.15408" lon="129.153079">
				<ele>28.68</ele>
			</trkpt>
			<trkpt lat="35.154149000000004" lon="129.15311979999998">
				<ele>28.438</ele>
			</trkpt>
			<trkpt lat="35.154218" lon="129.15316059999998">
				<ele>28.195999999999998</ele>
			</trkpt>
			<trkpt lat="35.154287000000004" lon="129.1532014">
				<ele>27.954</ele>
			</trkpt>
			<trkpt lat="35.154356" lon="129.1532422">
				<ele>27.712</ele>
			</trkpt>
			<trkpt lat="35.154425" lon="129.153283">
				<ele>27.47</ele>
			</trkpt>
			<trkpt lat="35.15450225" lon="129.1533345">
				<ele>27.38</ele>
			</trkpt>
			<trkpt lat="35.1545795" lon="129.153386">
				<ele>27.29</ele>
			</trkpt>
			<trkpt lat="35.15465675" lon="129.1534375">
				<ele>27.2</ele>
			</trkpt>
			<trkpt lat="35.154734" lon="129.153489">
				<ele>27.11</ele>
			</trkpt>
			<trkpt lat="35.154796" lon="129.15353">
				<ele>27.345</ele>
			</trkpt>
			<trkpt lat="35.154858" lon="129.153571">
				<ele>27.58</ele>
			</trkpt>
			<trkpt lat="35.15492" lon="129.153612">
				<ele>27.815</ele>
			</trkpt>
			<trkpt lat="35.154982" lon="129.153653">
				<ele>28.05</ele>
			</trkpt>
			<trkpt lat="35.1550545" lon="129.153665">
				<ele>28.4</ele>
			</trkpt>
			<trkpt lat="35.155127" lon="129.153677">
				<ele>28.75</ele>
			</trkpt>
			<trkpt lat="35.1552145" lon="129.153672">
				<ele>28.155</ele>
			</trkpt>
			<trkpt lat="35.155302" lon="129.153667">
				<ele>27.56</ele>
			</trkpt>
			<trkpt lat="35.1553824" lon="129.15364240000002">
				<ele>26.02</ele>
			</trkpt>
			<trkpt lat="35.1554628" lon="129.1536178">
				<ele>24.48</ele>
			</trkpt>
			<trkpt lat="35.1555432" lon="129.15359320000002">
				<ele>22.939999999999998</ele>
			</trkpt>
			<trkpt lat="35.1556236" lon="129.1535686">
				<ele>21.4</ele>
			</trkpt>
			<trkpt lat="35.155704" lon="129.153544">
				<ele>19.86</ele>
			</trkpt>
			<trkpt lat="35.155772999999996" lon="129.1535225">
				<ele>18.509999999999998</ele>
			</trkpt>
			<trkpt lat="35.155842" lon="129.153501">
				<ele>17.16</ele>
			</trkpt>
			<trkpt lat="35.155921444444445" lon="129.15348422222223">
				<ele>16.354444444444443</ele>
			</trkpt>
			<trkpt lat="35.15600088888889" lon="129.15346744444446">
				<ele>15.54888888888889</ele>
			</trkpt>
			<trkpt lat="35.156080333333335" lon="129.15345066666666">
				<ele>14.743333333333332</ele>
			</trkpt>
			<trkpt lat="35.15615977777778" lon="129.15343388888888">
				<ele>13.937777777777779</ele>
			</trkpt>
			<trkpt lat="35.15623922222222" lon="129.1534171111111">
				<ele>13.132222222222222</ele>
			</trkpt>
			<trkpt lat="35.156318666666664" lon="129.15340033333334">
				<ele>12.326666666666666</ele>
			</trkpt>
			<trkpt lat="35.15639811111111" lon="129.15338355555554">
				<ele>11.52111111111111</ele>
			</trkpt>
			<trkpt lat="35.156477555555554" lon="129.15336677777776">
				<ele>10.715555555555556</ele>
			</trkpt>
			<trkpt lat="35.156557" lon="129.15335">
				<ele>9.91</ele>
			</trkpt>
			<trkpt lat="35.156617499999996" lon="129.1533275">
				<ele>9.355</ele>
			</trkpt>
			<trkpt lat="35.156678" lon="129.153305">
				<ele>8.8</ele>
			</trkpt>
			<trkpt lat="35.15674955555556" lon="129.1532452222222">
				<ele>8.064444444444446</ele>
			</trkpt>
			<trkpt lat="35.156821111111114" lon="129.15318544444443">
				<ele>7.32888888888889</ele>
			</trkpt>
			<trkpt lat="35.156892666666664" lon="129.15312566666665">
				<ele>6.593333333333334</ele>
			</trkpt>
			<trkpt lat="35.15696422222222" lon="129.15306588888888">
				<ele>5.857777777777779</ele>
			</trkpt>
			<trkpt lat="35.15703577777778" lon="129.15300611111113">
				<ele>5.122222222222223</ele>
			</trkpt>
			<trkpt lat="35.157107333333336" lon="129.15294633333335">
				<ele>4.386666666666667</ele>
			</trkpt>
			<trkpt lat="35.157178888888886" lon="129.15288655555557">
				<ele>3.6511111111111116</ele>
			</trkpt>
			<trkpt lat="35.15725044444444" lon="129.1528267777778">
				<ele>2.9155555555555557</ele>
			</trkpt>
			<trkpt lat="35.157322" lon="129.152767">
				<ele>2.18</ele>
			</trkpt>
			<trkpt lat="35.157277" lon="129.152691">
				<ele>2.06</ele>
			</trkpt>
			<trkpt lat="35.157341" lon="129.152645">
				<ele>1.33</ele>
			</trkpt>
			<trkpt lat="35.157277" lon="129.152691">
				<ele>2.06</ele>
			</trkpt>
			<trkpt lat="35.157322" lon="129.152767">
				<ele>2.18</ele>
			</trkpt>
			<trkpt lat="35.15738533333334" lon="129.1527155">
				<ele>2.1233333333333335</ele>
			</trkpt>
			<trkpt lat="35.15744866666667" lon="129.15266400000002">
				<ele>2.066666666666667</ele>
			</trkpt>
			<trkpt lat="35.157512" lon="129.1526125">
				<ele>2.0100000000000002</ele>
			</trkpt>
			<trkpt lat="35.157575333333334" lon="129.152561">
				<ele>1.9533333333333334</ele>
			</trkpt>
			<trkpt lat="35.15763866666667" lon="129.1525095">
				<ele>1.8966666666666667</ele>
			</trkpt>
			<trkpt lat="35.157702" lon="129.152458">
				<ele>1.84</ele>
			</trkpt>
			<trkpt lat="35.15774433333333" lon="129.152385">
				<ele>2.48</ele>
			</trkpt>
			<trkpt lat="35.15778666666667" lon="129.152312">
				<ele>3.12</ele>
			</trkpt>
			<trkpt lat="35.157829" lon="129.152239">
				<ele>3.76</ele>
			</trkpt>
			<trkpt lat="35.157853" lon="129.152177">
				<ele>4.26</ele>
			</trkpt>
			<trkpt lat="35.157868" lon="129.152111">
				<ele>4.59</ele>
			</trkpt>
			<trkpt lat="35.157873" lon="129.152055">
				<ele>4.79</ele>
			</trkpt>
			<trkpt lat="35.1578688" lon="129.1519574">
				<ele>4.73</ele>
			</trkpt>
			<trkpt lat="35.1578646" lon="129.15185979999998">
				<ele>4.67</ele>
			</trkpt>
			<trkpt lat="35.1578604" lon="129.1517622">
				<ele>4.61</ele>
			</trkpt>
			<trkpt lat="35.1578562" lon="129.1516646">
				<ele>4.55</ele>
			</trkpt>
			<trkpt lat="35.157852" lon="129.151567">
				<ele>4.49</ele>
			</trkpt>
			<trkpt lat="35.15783075" lon="129.151484">
				<ele>4.1225000000000005</ele>
			</trkpt>
			<trkpt lat="35.1578095" lon="129.15140100000002">
				<ele>3.755</ele>
			</trkpt>
			<trkpt lat="35.157788249999996" lon="129.151318">
				<ele>3.3875</ele>
			</trkpt>
			<trkpt lat="35.157767" lon="129.151235">
				<ele>3.02</ele>
			</trkpt>
			<trkpt lat="35.1577315" lon="129.15119800000002">
				<ele>3.06</ele>
			</trkpt>
			<trkpt lat="35.157696" lon="129.151161">
				<ele>3.1</ele>
			</trkpt>
			<trkpt lat="35.15762866666667" lon="129.15110633333333">
				<ele>3.0633333333333335</ele>
			</trkpt>
			<trkpt lat="35.157561333333334" lon="129.15105166666666">
				<ele>3.026666666666667</ele>
			</trkpt>
			<trkpt lat="35.157494" lon="129.150997">
				<ele>2.99</ele>
			</trkpt>
			<trkpt lat="35.157448" lon="129.15094399999998">
				<ele>3.06</ele>
			</trkpt>
			<trkpt lat="35.157402" lon="129.150891">
				<ele>3.13</ele>
			</trkpt>
			<trkpt lat="35.157375" lon="129.1508365">
				<ele>3.34</ele>
			</trkpt>
			<trkpt lat="35.157348" lon="129.150782">
				<ele>3.55</ele>
			</trkpt>
			<trkpt lat="35.15732166666667" lon="129.1506795">
				<ele>3.9316666666666666</ele>
			</trkpt>
			<trkpt lat="35.15729533333333" lon="129.150577">
				<ele>4.3133333333333335</ele>
			</trkpt>
			<trkpt lat="35.157269" lon="129.1504745">
				<ele>4.695</ele>
			</trkpt>
			<trkpt lat="35.15724266666667" lon="129.150372">
				<ele>5.076666666666666</ele>
			</trkpt>
			<trkpt lat="35.15721633333333" lon="129.1502695">
				<ele>5.458333333333333</ele>
			</trkpt>
			<trkpt lat="35.15719" lon="129.150167">
				<ele>5.84</ele>
			</trkpt>
			<trkpt lat="35.157165222222226" lon="129.15006433333335">
				<ele>5.684444444444444</ele>
			</trkpt>
			<trkpt lat="35.157140444444444" lon="129.14996166666668">
				<ele>5.528888888888889</ele>
			</trkpt>
			<trkpt lat="35.15711566666667" lon="129.14985900000002">
				<ele>5.373333333333333</ele>
			</trkpt>
			<trkpt lat="35.15709088888889" lon="129.14975633333336">
				<ele>5.217777777777778</ele>
			</trkpt>
			<trkpt lat="35.157066111111114" lon="129.14965366666667">
				<ele>5.062222222222222</ele>
			</trkpt>
			<trkpt lat="35.15704133333333" lon="129.149551">
				<ele>4.906666666666667</ele>
			</trkpt>
			<trkpt lat="35.15701655555556" lon="129.14944833333334">
				<ele>4.751111111111111</ele>
			</trkpt>
			<trkpt lat="35.156991777777776" lon="129.14934566666668">
				<ele>4.595555555555556</ele>
			</trkpt>
			<trkpt lat="35.156967" lon="129.149243">
				<ele>4.44</ele>
			</trkpt>
			<trkpt lat="35.156925" lon="129.149146">
				<ele>4.07</ele>
			</trkpt>
			<trkpt lat="35.156883" lon="129.14904900000002">
				<ele>3.7</ele>
			</trkpt>
			<trkpt lat="35.156841" lon="129.148952">
				<ele>3.33</ele>
			</trkpt>
			<trkpt lat="35.156812" lon="129.148931">
				<ele>3.14</ele>
			</trkpt>
			<trkpt lat="35.15679" lon="129.148887">
				<ele>3.0</ele>
			</trkpt>
			<trkpt lat="35.1567725" lon="129.1488005">
				<ele>2.6399999999999997</ele>
			</trkpt>
			<trkpt lat="35.156755" lon="129.148714">
				<ele>2.28</ele>
			</trkpt>
			<trkpt lat="35.156733" lon="129.148656">
				<ele>2.02</ele>
			</trkpt>
			<trkpt lat="35.156703" lon="129.148597">
				<ele>1.75</ele>
			</trkpt>
			<trkpt lat="35.156655" lon="129.1485325">
				<ele>1.385</ele>
			</trkpt>
			<trkpt lat="35.156607" lon="129.148468">
				<ele>1.02</ele>
			</trkpt>
			<trkpt lat="35.156597" lon="129.148425">
				<ele>0.87</ele>
			</trkpt>
			<trkpt lat="35.156598" lon="129.148365">
				<ele>0.73</ele>
			</trkpt>
			<trkpt lat="35.1565524" lon="129.14828740000002">
				<ele>0.768</ele>
			</trkpt>
			<trkpt lat="35.1565068" lon="129.14820980000002">
				<ele>0.806</ele>
			</trkpt>
			<trkpt lat="35.1564612" lon="129.1481322">
				<ele>0.8440000000000001</ele>
			</trkpt>
			<trkpt lat="35.1564156" lon="129.1480546">
				<ele>0.882</ele>
			</trkpt>
			<trkpt lat="35.15637" lon="129.147977">
				<ele>0.92</ele>
			</trkpt>
			<trkpt lat="35.1563062" lon="129.1479114">
				<ele>1.2</ele>
			</trkpt>
			<trkpt lat="35.156242400000004" lon="129.1478458">
				<ele>1.48</ele>
			</trkpt>
			<trkpt lat="35.1561786" lon="129.1477802">
				<ele>1.7599999999999998</ele>
			</trkpt>
			<trkpt lat="35.1561148" lon="129.1477146">
				<ele>2.04</ele>
			</trkpt>
			<trkpt lat="35.156051" lon="129.147649">
				<ele>2.32</ele>
			</trkpt>
			<trkpt lat="35.155977" lon="129.147588">
				<ele>2.7666666666666666</ele>
			</trkpt>
			<trkpt lat="35.155902999999995" lon="129.147527">
				<ele>3.2133333333333334</ele>
			</trkpt>
			<trkpt lat="35.155829" lon="129.147466">
				<ele>3.66</ele>
			</trkpt>
			<trkpt lat="35.155771666666666" lon="129.14743166666668">
				<ele>4.1000000000000005</ele>
			</trkpt>
			<trkpt lat="35.15571433333333" lon="129.14739733333334">
				<ele>4.54</ele>
			</trkpt>
			<trkpt lat="35.155657" lon="129.147363">
				<ele>4.98</ele>
			</trkpt>
			<trkpt lat="35.155582499999994" lon="129.14732500000002">
				<ele>5.265000000000001</ele>
			</trkpt>
			<trkpt lat="35.155508" lon="129.147287">
				<ele>5.55</ele>
			</trkpt>
			<trkpt lat="35.1554328" lon="129.1472572">
				<ele>5.608</ele>
			</trkpt>
			<trkpt lat="35.1553576" lon="129.14722740000002">
				<ele>5.6659999999999995</ele>
			</trkpt>
			<trkpt lat="35.1552824" lon="129.1471976">
				<ele>5.724</ele>
			</trkpt>
			<trkpt lat="35.1552072" lon="129.1471678">
				<ele>5.782</ele>
			</trkpt>
			<trkpt lat="35.155132" lon="129.147138">
				<ele>5.84</ele>
			</trkpt>
			<trkpt lat="35.155071" lon="129.14712150000003">
				<ele>5.915</ele>
			</trkpt>
			<trkpt lat="35.15501" lon="129.147105">
				<ele>5.99</ele>
			</trkpt>
			<trkpt lat="35.155039249999994" lon="129.14700190625">
				<ele>5.953125</ele>
			</trkpt>
			<trkpt lat="35.1550685" lon="129.1468988125">
				<ele>5.91625</ele>
			</trkpt>
			<trkpt lat="35.155097749999996" lon="129.14679571875">
				<ele>5.8793750000000005</ele>
			</trkpt>
			<trkpt lat="35.155127" lon="129.14669262500001">
				<ele>5.8425</ele>
			</trkpt>
			<trkpt lat="35.15515625" lon="129.14658953125002">
				<ele>5.805625</ele>
			</trkpt>
			<trkpt lat="35.155185499999995" lon="129.14648643750002">
				<ele>5.76875</ele>
			</trkpt>
			<trkpt lat="35.15521475" lon="129.14638334375002">
				<ele>5.7318750000000005</ele>
			</trkpt>
			<trkpt lat="35.155243999999996" lon="129.14628025000002">
				<ele>5.695</ele>
			</trkpt>
			<trkpt lat="35.15527325" lon="129.14617715625002">
				<ele>5.658125</ele>
			</trkpt>
			<trkpt lat="35.1553025" lon="129.14607406250002">
				<ele>5.62125</ele>
			</trkpt>
			<trkpt lat="35.155331749999995" lon="129.14597096875002">
				<ele>5.584375</ele>
			</trkpt>
			<trkpt lat="35.155361" lon="129.14586787500002">
				<ele>5.5475</ele>
			</trkpt>
			<trkpt lat="35.155390249999996" lon="129.14576478125002">
				<ele>5.510625</ele>
			</trkpt>
			<trkpt lat="35.1554195" lon="129.14566168750002">
				<ele>5.47375</ele>
			</trkpt>
			<trkpt lat="35.15544875" lon="129.14555859375002">
				<ele>5.436875</ele>
			</trkpt>
			<trkpt lat="35.155478" lon="129.14545550000003">
				<ele>5.4</ele>
			</trkpt>
			<trkpt lat="35.15550725" lon="129.14535240625">
				<ele>5.363125</ele>
			</trkpt>
			<trkpt lat="35.1555365" lon="129.1452493125">
				<ele>5.32625</ele>
			</trkpt>
			<trkpt lat="35.15556575" lon="129.14514621875">
				<ele>5.289375</ele>
			</trkpt>
			<trkpt lat="35.155595" lon="129.145043125">
				<ele>5.2524999999999995</ele>
			</trkpt>
			<trkpt lat="35.15562425" lon="129.14494003125">
				<ele>5.215625</ele>
			</trkpt>
			<trkpt lat="35.1556535" lon="129.1448369375">
				<ele>5.17875</ele>
			</trkpt>
			<trkpt lat="35.15568275" lon="129.14473384375">
				<ele>5.141875</ele>
			</trkpt>
			<trkpt lat="35.155712" lon="129.14463075">
				<ele>5.1049999999999995</ele>
			</trkpt>
			<trkpt lat="35.15574125" lon="129.14452765625">
				<ele>5.068125</ele>
			</trkpt>
			<trkpt lat="35.1557705" lon="129.1444245625">
				<ele>5.03125</ele>
			</trkpt>
			<trkpt lat="35.15579975" lon="129.14432146875">
				<ele>4.994375</ele>
			</trkpt>
			<trkpt lat="35.155829" lon="129.144218375">
				<ele>4.9575</ele>
			</trkpt>
			<trkpt lat="35.15585825" lon="129.14411528125">
				<ele>4.920624999999999</ele>
			</trkpt>
			<trkpt lat="35.1558875" lon="129.1440121875">
				<ele>4.883749999999999</ele>
			</trkpt>
			<trkpt lat="35.15591675" lon="129.14390909375">
				<ele>4.846875</ele>
			</trkpt>
			<trkpt lat="35.155946" lon="129.143806">
				<ele>4.81</ele>
			</trkpt>
		</trkseg>
	</trk>
</gpx>